{
  "type": "FeatureCollection",
  "features": [
    {
      "type": "Feature",
      "properties": {
        "description": "<b>Fecha de Creación:</b> 01/02/2024 - 12:21:38<br><b>Dirección:</b> Ambos Sentidos<br><b>Carretera:</b> BV-4023<br><b>Punto Kilométrico:</b> 0.0 km"
      },
      "geometry": {
        "type": "Point",
        "coordinates": [
          1.8857243,
          42.16261
        ]
      }
    },
    {
      "type": "Feature",
      "properties": {
        "description": "<b>Fecha de Creación:</b> 17/01/2025 - 22:00:00<br><b>Dirección:</b> Ambos Sentidos<br><b>Carretera:</b> N-150<br><b>Punto Kilométrico:</b> 15.2 km"
      },
      "geometry": {
        "type": "Point",
        "coordinates": [
          2.0473378,
          41.55615
        ]
      }
    },
    {
      "type": "Feature",
      "properties": {
        "description": "<b>Fecha de Creación:</b> 15/03/2025 - 08:37:18<br><b>Dirección:</b> Ambos Sentidos<br><b>Carretera:</b> B-420<br><b>Punto Kilométrico:</b> 9.0 km"
      },
      "geometry": {
        "type": "Point",
        "coordinates": [
          1.7238129,
          42.023182
        ]
      }
    },
    {
      "type": "Feature",
      "properties": {
        "description": "<b>Fecha de Creación:</b> 15/03/2025 - 08:38:18<br><b>Dirección:</b> Ambos Sentidos<br><b>Carretera:</b> C-26<br><b>Punto Kilométrico:</b> 129.5 km"
      },
      "geometry": {
        "type": "Point",
        "coordinates": [
          1.7269242,
          42.025352
        ]
      }
    },
    {
      "type": "Feature",
      "properties": {
        "description": "<b>Fecha de Creación:</b> 25/08/2025 - 21:00:00<br><b>Impacto: </b> Imposible circular<br><b>Carretera:</b> A-2<br><b>Punto Kilométrico:</b> 542.3 km"
      },
      "geometry": {
        "type": "Point",
        "coordinates": [
          1.5302428,
          41.610344
        ]
      }
    },
    {
      "type": "Feature",
      "properties": {
        "description": "<b>Fecha de Creación:</b> 28/08/2025 - 06:00:00<br><b>Impacto: </b> Retención<br><b>Carretera:</b> A-2<br><b>Punto Kilométrico:</b> 545.0 km"
      },
      "geometry": {
        "type": "Point",
        "coordinates": [
          1.5209665,
          41.616295
        ]
      }
    },
    {
      "type": "Feature",
      "properties": {
        "description": "<b>Fecha de Creación:</b> 04/09/2025 - 10:24:49<br><b>Dirección:</b> Ambos Sentidos<br><b>Carretera:</b> N-150<br><b>Punto Kilométrico:</b> 15.9 km"
      },
      "geometry": {
        "type": "Point",
        "coordinates": [
          2.0473378,
          41.55615
        ]
      }
    },
    {
      "type": "Feature",
      "properties": {
        "description": "<b>Fecha de Creación:</b> 03/11/2025 - 08:00:00<br><b>Dirección:</b> Ambos Sentidos<br><b>Carretera:</b> C-31<br><b>Punto Kilométrico:</b> 350.5 km"
      },
      "geometry": {
        "type": "Point",
        "coordinates": [
          3.1037035,
          42.049923
        ]
      }
    },
    {
      "type": "Feature",
      "properties": {
        "description": "<b>Fecha de Creación:</b> 12/11/2025 - 08:44:16<br><b>Dirección:</b> Ambos Sentidos<br><b>Carretera:</b> C-37<br><b>Punto Kilométrico:</b> 64.0 km"
      },
      "geometry": {
        "type": "Point",
        "coordinates": [
          1.612069,
          41.584152
        ]
      }
    },
    {
      "type": "Feature",
      "properties": {
        "description": "<b>Fecha de Creación:</b> 12/11/2025 - 08:51:52<br><b>Dirección:</b> Ambos Sentidos<br><b>Carretera:</b> C-59<br><b>Punto Kilométrico:</b> 10.0 km"
      },
      "geometry": {
        "type": "Point",
        "coordinates": [
          2.1731915,
          41.622383
        ]
      }
    },
    {
      "type": "Feature",
      "properties": {
        "description": "<b>Fecha de Creación:</b> 09/12/2025 - 07:00:00<br><b>Dirección:</b> Ambos Sentidos<br><b>Carretera:</b> C-352<br><b>Punto Kilométrico:</b> 22.5 km"
      },
      "geometry": {
        "type": "Point",
        "coordinates": [
          2.3092756,
          41.61026
        ]
      }
    },
    {
      "type": "Feature",
      "properties": {
        "description": "<b>Fecha de Creación:</b> 19/01/2026 - 09:20:11<br><b>Dirección:</b> Ambos Sentidos<br><b>Carretera:</b> TV-7042<br><b>Punto Kilométrico:</b> 10.8 km"
      },
      "geometry": {
        "type": "Point",
        "coordinates": [
          1.1651233,
          41.36753
        ]
      }
    },
    {
      "type": "Feature",
      "properties": {
        "description": "<b>Fecha de Creación:</b> 21/01/2026 - 14:17:34<br><b>Dirección:</b> Ambos Sentidos<br><b>Carretera:</b> BV-1604<br><b>Punto Kilométrico:</b> 2.5 km"
      },
      "geometry": {
        "type": "Point",
        "coordinates": [
          2.2363834,
          41.57929
        ]
      }
    },
    {
      "type": "Feature",
      "properties": {
        "description": "<b>Fecha de Creación:</b> 03/02/2026 - 10:24:34<br><b>Dirección:</b> Ambos Sentidos<br><b>Carretera:</b> TV-3146<br><b>Punto Kilométrico:</b> 0.0 km"
      },
      "geometry": {
        "type": "Point",
        "coordinates": [
          1.1894399,
          41.100163
        ]
      }
    },
    {
      "type": "Feature",
      "properties": {
        "description": "<b>Fecha de Creación:</b> 04/02/2026 - 14:20:10<br><b>Dirección:</b> Ambos Sentidos<br><b>Carretera:</b> C-17<br><b>Punto Kilométrico:</b> 15.5 km"
      },
      "geometry": {
        "type": "Point",
        "coordinates": [
          2.2469902,
          41.571655
        ]
      }
    },
    {
      "type": "Feature",
      "properties": {
        "description": "<b>Fecha de Creación:</b> 04/02/2026 - 14:23:22<br><b>Dirección:</b> Ambos Sentidos<br><b>Carretera:</b> C-35<br><b>Punto Kilométrico:</b> 28.0 km"
      },
      "geometry": {
        "type": "Point",
        "coordinates": [
          2.2528374,
          41.570137
        ]
      }
    },
    {
      "type": "Feature",
      "properties": {
        "description": "<b>Fecha de Creación:</b> 07/02/2026 - 13:48:46<br><b>Carretera:</b> B-40<br><b>Punto Kilométrico:</b> 4.0 km"
      },
      "geometry": {
        "type": "Point",
        "coordinates": [
          2.3844454,
          41.576168
        ]
      }
    },
    {
      "type": "Feature",
      "properties": {
        "description": "<b>Fecha de Creación:</b> 09/02/2026 - 15:16:25<br><b>Dirección:</b> Ambos Sentidos<br><b>Carretera:</b> C-55<br><b>Punto Kilométrico:</b> 20.8 km"
      },
      "geometry": {
        "type": "Point",
        "coordinates": [
          1.8508769,
          41.676743
        ]
      }
    },
    {
      "type": "Feature",
      "properties": {
        "description": "<b>Fecha de Creación:</b> 16/02/2026 - 07:30:00<br><b>Dirección:</b> Ambos Sentidos<br><b>Carretera:</b> C-31<br><b>Punto Kilométrico:</b> 333.4 km"
      },
      "geometry": {
        "type": "Point",
        "coordinates": [
          3.052744,
          42.07198
        ]
      }
    },
    {
      "type": "Feature",
      "properties": {
        "description": "<b>Fecha de Creación:</b> 16/02/2026 - 12:30:52<br><b>Dirección:</b> Ambos Sentidos<br><b>Carretera:</b> C-58<br><b>Punto Kilométrico:</b> 7.0 km"
      },
      "geometry": {
        "type": "Point",
        "coordinates": [
          2.0178323,
          41.542442
        ]
      }
    },
    {
      "type": "Feature",
      "properties": {
        "description": "<b>Fecha de Creación:</b> 10/03/2026 - 15:39:28<br><b>Dirección:</b> Ambos Sentidos<br><b>Carretera:</b> N-260<br><b>Punto Kilométrico:</b> 111.0 km"
      },
      "geometry": {
        "type": "Point",
        "coordinates": [
          2.233908,
          42.195293
        ]
      }
    },
    {
      "type": "Feature",
      "properties": {
        "description": "<b>Fecha de Creación:</b> 15/03/2026 - 06:30:00<br><b>Dirección:</b> Ambos Sentidos<br><b>Carretera:</b> GIV-5147<br><b>Punto Kilométrico:</b> 0.0 km"
      },
      "geometry": {
        "type": "Point",
        "coordinates": [
          2.805347,
          42.07149
        ]
      }
    },
    {
      "type": "Feature",
      "properties": {
        "description": "<b>Fecha de Creación:</b> 15/03/2026 - 06:30:00<br><b>Dirección:</b> Ambos Sentidos<br><b>Carretera:</b> GIV-5146<br><b>Punto Kilométrico:</b> 0.0 km"
      },
      "geometry": {
        "type": "Point",
        "coordinates": [
          2.7868521,
          42.101498
        ]
      }
    },
    {
      "type": "Feature",
      "properties": {
        "description": "<b>Fecha de Creación:</b> 15/03/2026 - 06:30:00<br><b>Dirección:</b> Ambos Sentidos<br><b>Carretera:</b> GIV-6708<br><b>Punto Kilométrico:</b> 0.0 km"
      },
      "geometry": {
        "type": "Point",
        "coordinates": [
          2.8986118,
          42.024208
        ]
      }
    },
    {
      "type": "Feature",
      "properties": {
        "description": "<b>Fecha de Creación:</b> 15/03/2026 - 06:30:00<br><b>Dirección:</b> Ambos Sentidos<br><b>Carretera:</b> GIV-6621<br><b>Punto Kilométrico:</b> 0.0 km"
      },
      "geometry": {
        "type": "Point",
        "coordinates": [
          3.0478594,
          41.792427
        ]
      }
    },
    {
      "type": "Feature",
      "properties": {
        "description": "<b>Fecha de Creación:</b> 15/03/2026 - 06:30:00<br><b>Dirección:</b> Ambos Sentidos<br><b>Carretera:</b> GIV-6542<br><b>Punto Kilométrico:</b> 0.0 km"
      },
      "geometry": {
        "type": "Point",
        "coordinates": [
          3.2071168,
          41.915215
        ]
      }
    },
    {
      "type": "Feature",
      "properties": {
        "description": "<b>Fecha de Creación:</b> 15/03/2026 - 06:30:00<br><b>Carretera:</b> GIV-5265<br><b>Punto Kilométrico:</b> 0.0 km"
      },
      "geometry": {
        "type": "Point",
        "coordinates": [
          2.298372,
          42.342163
        ]
      }
    },
    {
      "type": "Feature",
      "properties": {
        "description": "<b>Fecha de Creación:</b> 15/03/2026 - 06:30:00<br><b>Dirección:</b> Ambos Sentidos<br><b>Carretera:</b> GIV-5145<br><b>Punto Kilométrico:</b> 0.0 km"
      },
      "geometry": {
        "type": "Point",
        "coordinates": [
          2.8179257,
          42.111652
        ]
      }
    },
    {
      "type": "Feature",
      "properties": {
        "description": "<b>Fecha de Creación:</b> 16/03/2026 - 07:00:00<br><b>Carretera:</b> B-124<br><b>Punto Kilométrico:</b> 3.5 km"
      },
      "geometry": {
        "type": "Point",
        "coordinates": [
          2.0903473,
          41.583824
        ]
      }
    },
    {
      "type": "Feature",
      "properties": {
        "description": "<b>Fecha de Creación:</b> 23/03/2026 - 06:30:00<br><b>Dirección:</b> Ambos Sentidos<br><b>Carretera:</b> GIV-5313<br><b>Punto Kilométrico:</b> 0.0 km"
      },
      "geometry": {
        "type": "Point",
        "coordinates": [
          2.7427468,
          42.013424
        ]
      }
    },
    {
      "type": "Feature",
      "properties": {
        "description": "<b>Fecha de Creación:</b> 23/03/2026 - 06:30:00<br><b>Dirección:</b> Ambos Sentidos<br><b>Carretera:</b> GIV-5263<br><b>Punto Kilométrico:</b> 0.0 km"
      },
      "geometry": {
        "type": "Point",
        "coordinates": [
          2.1684177,
          42.299175
        ]
      }
    },
    {
      "type": "Feature",
      "properties": {
        "description": "<b>Fecha de Creación:</b> 23/03/2026 - 06:30:00<br><b>Dirección:</b> Ambos Sentidos<br><b>Carretera:</b> GIV-6703<br><b>Punto Kilométrico:</b> 0.0 km"
      },
      "geometry": {
        "type": "Point",
        "coordinates": [
          2.9536974,
          41.988384
        ]
      }
    },
    {
      "type": "Feature",
      "properties": {
        "description": "<b>Fecha de Creación:</b> 23/03/2026 - 06:30:00<br><b>Dirección:</b> Ambos Sentidos<br><b>Carretera:</b> GIV-5341<br><b>Punto Kilométrico:</b> 0.0 km"
      },
      "geometry": {
        "type": "Point",
        "coordinates": [
          2.7376542,
          41.888397
        ]
      }
    },
    {
      "type": "Feature",
      "properties": {
        "description": "<b>Fecha de Creación:</b> 29/03/2026 - 07:00:00<br><b>Dirección:</b> Ambos Sentidos<br><b>Carretera:</b> GI-542<br><b>Punto Kilométrico:</b> 0.0 km"
      },
      "geometry": {
        "type": "Point",
        "coordinates": [
          2.5026598,
          41.896362
        ]
      }
    },
    {
      "type": "Feature",
      "properties": {
        "description": "<b>Fecha de Creación:</b> 01/04/2026 - 08:00:00<br><b>Carretera:</b> N-154<br><b>Punto Kilométrico:</b> 0.0 km"
      },
      "geometry": {
        "type": "Point",
        "coordinates": [
          2.009868,
          42.455875
        ]
      }
    },
    {
      "type": "Feature",
      "properties": {
        "description": "<b>Fecha de Creación:</b> 03/04/2026 - 07:57:02<br><b>Carretera:</b> AP-2<br><b>Punto Kilométrico:</b> 191.0 km"
      },
      "geometry": {
        "type": "Point",
        "coordinates": [
          1.1548209,
          41.400116
        ]
      }
    },
    {
      "type": "Feature",
      "properties": {
        "description": "<b>Fecha de Creación:</b> 07/04/2026 - 08:00:00<br><b>Dirección:</b> Ambos Sentidos<br><b>Carretera:</b> N-260<br><b>Punto Kilométrico:</b> 230.0 km"
      },
      "geometry": {
        "type": "Point",
        "coordinates": [
          1.4335504,
          42.349827
        ]
      }
    },
    {
      "type": "Feature",
      "properties": {
        "description": "<b>Fecha de Creación:</b> 08/04/2026 - 08:00:00<br><b>Dirección:</b> Ambos Sentidos<br><b>Carretera:</b> C-25<br><b>Punto Kilométrico:</b> 241.0 km"
      },
      "geometry": {
        "type": "Point",
        "coordinates": [
          2.8196335,
          41.897823
        ]
      }
    },
    {
      "type": "Feature",
      "properties": {
        "description": "<b>Fecha de Creación:</b> 13/04/2026 - 10:00:00<br><b>Dirección:</b> Ambos Sentidos<br><b>Carretera:</b> B-431<br><b>Punto Kilométrico:</b> 41.0 km"
      },
      "geometry": {
        "type": "Point",
        "coordinates": [
          1.9592295,
          41.79254
        ]
      }
    },
    {
      "type": "Feature",
      "properties": {
        "description": "<b>Fecha de Creación:</b> 14/04/2026 - 09:30:00<br><b>Dirección:</b> Ambos Sentidos<br><b>Carretera:</b> T-750<br><b>Punto Kilométrico:</b> 1.7 km"
      },
      "geometry": {
        "type": "Point",
        "coordinates": [
          1.218409,
          41.186893
        ]
      }
    },
    {
      "type": "Feature",
      "properties": {
        "description": "<b>Fecha de Creación:</b> 20/04/2026 - 06:30:00<br><b>Dirección:</b> Ambos Sentidos<br><b>Carretera:</b> GI-501<br><b>Punto Kilométrico:</b> 0.0 km"
      },
      "geometry": {
        "type": "Point",
        "coordinates": [
          2.798095,
          42.407345
        ]
      }
    },
    {
      "type": "Feature",
      "properties": {
        "description": "<b>Fecha de Creación:</b> 20/04/2026 - 06:30:00<br><b>Dirección:</b> Ambos Sentidos<br><b>Carretera:</b> GIV-4714<br><b>Punto Kilométrico:</b> 0.0 km"
      },
      "geometry": {
        "type": "Point",
        "coordinates": [
          2.1451116,
          42.27835
        ]
      }
    },
    {
      "type": "Feature",
      "properties": {
        "description": "<b>Fecha de Creación:</b> 20/04/2026 - 06:30:00<br><b>Dirección:</b> Ambos Sentidos<br><b>Carretera:</b> GI-505<br><b>Punto Kilométrico:</b> 0.0 km"
      },
      "geometry": {
        "type": "Point",
        "coordinates": [
          2.8007922,
          42.421906
        ]
      }
    },
    {
      "type": "Feature",
      "properties": {
        "description": "<b>Fecha de Creación:</b> 20/04/2026 - 06:30:00<br><b>Dirección:</b> Ambos Sentidos<br><b>Carretera:</b> GIV-5232<br><b>Punto Kilométrico:</b> 0.0 km"
      },
      "geometry": {
        "type": "Point",
        "coordinates": [
          2.5969074,
          42.23217
        ]
      }
    },
    {
      "type": "Feature",
      "properties": {
        "description": "<b>Fecha de Creación:</b> 22/04/2026 - 20:49:11<br><b>Carretera:</b> BV-1414<br><b>Punto Kilométrico:</b> 4.0 km"
      },
      "geometry": {
        "type": "Point",
        "coordinates": [
          2.1022859,
          41.480377
        ]
      }
    },
    {
      "type": "Feature",
      "properties": {
        "description": "<b>Fecha de Creación:</b> 27/04/2026 - 12:37:10<br><b>Dirección:</b> Ambos Sentidos<br><b>Carretera:</b> T-203<br><b>Punto Kilométrico:</b> 0.0 km"
      },
      "geometry": {
        "type": "Point",
        "coordinates": [
          1.3228133,
          41.17485
        ]
      }
    },
    {
      "type": "Feature",
      "properties": {
        "description": "<b>Fecha de Creación:</b> 03/05/2026 - 22:00:00<br><b>Dirección:</b> Ambos Sentidos<br><b>Carretera:</b> N-II<br><b>Punto Kilométrico:</b> 689.0 km"
      },
      "geometry": {
        "type": "Point",
        "coordinates": [
          2.7651908,
          41.848186
        ]
      }
    },
    {
      "type": "Feature",
      "properties": {
        "description": "<b>Fecha de Creación:</b> 07/05/2026 - 17:40:00<br><b>Dirección:</b> Ambos Sentidos<br><b>Carretera:</b> N-420<br><b>Punto Kilométrico:</b> 866.0 km"
      },
      "geometry": {
        "type": "Point",
        "coordinates": [
          1.0446111,
          41.167557
        ]
      }
    },
    {
      "type": "Feature",
      "properties": {
        "description": "<b>Fecha de Creación:</b> 11/05/2026 - 22:30:00<br><b>Dirección:</b> Ambos Sentidos<br><b>Impacto: </b> Retención<br><b>Carretera:</b> B-20<br><b>Punto Kilométrico:</b> 10.1 km"
      },
      "geometry": {
        "type": "Point",
        "coordinates": [
          2.1397524,
          41.419525
        ]
      }
    },
    {
      "type": "Feature",
      "properties": {
        "description": "<b>Fecha de Creación:</b> 15/05/2026 - 15:48:32<br><b>Carretera:</b> B-502<br><b>Punto Kilométrico:</b> 1.0 km"
      },
      "geometry": {
        "type": "Point",
        "coordinates": [
          2.4012976,
          41.521736
        ]
      }
    },
    {
      "type": "Feature",
      "properties": {
        "description": "<b>Fecha de Creación:</b> 18/05/2026 - 07:00:00<br><b>Dirección:</b> Ambos Sentidos<br><b>Carretera:</b> GIV-4011<br><b>Punto Kilométrico:</b> 0.0 km"
      },
      "geometry": {
        "type": "Point",
        "coordinates": [
          2.166593,
          42.30052
        ]
      }
    },
    {
      "type": "Feature",
      "properties": {
        "description": "<b>Fecha de Creación:</b> 26/05/2026 - 10:40:13<br><b>Dirección:</b> Ambos Sentidos<br><b>Carretera:</b> C-15<br><b>Punto Kilométrico:</b> 32.3 km"
      },
      "geometry": {
        "type": "Point",
        "coordinates": [
          1.7039373,
          41.488716
        ]
      }
    },
    {
      "type": "Feature",
      "properties": {
        "description": "<b>Fecha de Creación:</b> 27/05/2026 - 08:00:00<br><b>Dirección:</b> Ambos Sentidos<br><b>Impacto: </b> Imposible circular<br><b>Carretera:</b> BV-1604<br><b>Punto Kilométrico:</b> 0.1 km"
      },
      "geometry": {
        "type": "Point",
        "coordinates": [
          2.2279584,
          41.555504
        ]
      }
    },
    {
      "type": "Feature",
      "properties": {
        "description": "<b>Fecha de Creación:</b> 27/05/2026 - 09:00:00<br><b>Dirección:</b> Ambos Sentidos<br><b>Carretera:</b> B-23<br><b>Punto Kilométrico:</b> 0.0 km"
      },
      "geometry": {
        "type": "Point",
        "coordinates": [
          2.1077645,
          41.38324
        ]
      }
    },
    {
      "type": "Feature",
      "properties": {
        "description": "<b>Fecha de Creación:</b> 27/05/2026 - 10:00:00<br><b>Dirección:</b> Ambos Sentidos<br><b>Carretera:</b> N-150<br><b>Punto Kilométrico:</b> 14.3 km"
      },
      "geometry": {
        "type": "Point",
        "coordinates": [
          2.0711575,
          41.55206
        ]
      }
    },
    {
      "type": "Feature",
      "properties": {
        "description": "<b>Fecha de Creación:</b> 01/06/2026 - 08:00:00<br><b>Dirección:</b> Ambos Sentidos<br><b>Carretera:</b> GI-524<br><b>Punto Kilométrico:</b> 3.9 km"
      },
      "geometry": {
        "type": "Point",
        "coordinates": [
          2.5178597,
          42.153313
        ]
      }
    },
    {
      "type": "Feature",
      "properties": {
        "description": "<b>Fecha de Creación:</b> 01/06/2026 - 09:00:00<br><b>Dirección:</b> Ambos Sentidos<br><b>Carretera:</b> BP-5002<br><b>Punto Kilométrico:</b> 1.5 km"
      },
      "geometry": {
        "type": "Point",
        "coordinates": [
          2.2958713,
          41.491634
        ]
      }
    },
    {
      "type": "Feature",
      "properties": {
        "description": "<b>Fecha de Creación:</b> 08/06/2026 - 08:00:00<br><b>Dirección:</b> Ambos Sentidos<br><b>Carretera:</b> C-670<br><b>Punto Kilométrico:</b> 8.0 km"
      },
      "geometry": {
        "type": "Point",
        "coordinates": [
          2.0578551,
          41.931915
        ]
      }
    },
    {
      "type": "Feature",
      "properties": {
        "description": "<b>Fecha de Creación:</b> 08/06/2026 - 08:00:00<br><b>Dirección:</b> Ambos Sentidos<br><b>Carretera:</b> B-433<br><b>Punto Kilométrico:</b> 10.2 km"
      },
      "geometry": {
        "type": "Point",
        "coordinates": [
          2.0219553,
          41.942394
        ]
      }
    },
    {
      "type": "Feature",
      "properties": {
        "description": "<b>Fecha de Creación:</b> 08/06/2026 - 08:00:00<br><b>Dirección:</b> Ambos Sentidos<br><b>Carretera:</b> B-431<br><b>Punto Kilométrico:</b> 63.4 km"
      },
      "geometry": {
        "type": "Point",
        "coordinates": [
          2.018925,
          41.946228
        ]
      }
    },
    {
      "type": "Feature",
      "properties": {
        "description": "<b>Fecha de Creación:</b> 15/06/2026 - 15:54:33<br><b>Dirección:</b> Ambos Sentidos<br><b>Carretera:</b> BP-4654<br><b>Punto Kilométrico:</b> 2.3 km"
      },
      "geometry": {
        "type": "Point",
        "coordinates": [
          2.13722,
          42.084507
        ]
      }
    },
    {
      "type": "Feature",
      "properties": {
        "description": "<b>Fecha de Creación:</b> 22/06/2026 - 07:00:00<br><b>Carretera:</b> C-17<br><b>Punto Kilométrico:</b> 32.0 km"
      },
      "geometry": {
        "type": "Point",
        "coordinates": [
          2.2852776,
          41.706303
        ]
      }
    },
    {
      "type": "Feature",
      "properties": {
        "description": "<b>Fecha de Creación:</b> 22/06/2026 - 13:39:35<br><b>Dirección:</b> Ambos Sentidos<br><b>Carretera:</b> BP-1432<br><b>Punto Kilométrico:</b> 17.6 km"
      },
      "geometry": {
        "type": "Point",
        "coordinates": [
          2.1965647,
          41.689583
        ]
      }
    },
    {
      "type": "Feature",
      "properties": {
        "description": "<b>Fecha de Creación:</b> 29/06/2026 - 07:00:00<br><b>Dirección:</b> Ambos Sentidos<br><b>Carretera:</b> C-1412b<br><b>Punto Kilométrico:</b> 16.9 km"
      },
      "geometry": {
        "type": "Point",
        "coordinates": [
          1.1589382,
          42.018856
        ]
      }
    },
    {
      "type": "Feature",
      "properties": {
        "description": "<b>Fecha de Creación:</b> 29/06/2026 - 09:30:00<br><b>Dirección:</b> Ambos Sentidos<br><b>Carretera:</b> BV-4316<br><b>Punto Kilométrico:</b> 4.9 km"
      },
      "geometry": {
        "type": "Point",
        "coordinates": [
          2.1622066,
          41.91148
        ]
      }
    },
    {
      "type": "Feature",
      "properties": {
        "description": "<b>Fecha de Creación:</b> 29/06/2026 - 14:00:00<br><b>Dirección:</b> Ambos Sentidos<br><b>Carretera:</b> C-55<br><b>Punto Kilométrico:</b> 37.0 km"
      },
      "geometry": {
        "type": "Point",
        "coordinates": [
          1.7917691,
          41.77876
        ]
      }
    },
    {
      "type": "Feature",
      "properties": {
        "description": "<b>Fecha de Creación:</b> 01/07/2026 - 23:00:00<br><b>Dirección:</b> Ambos Sentidos<br><b>Carretera:</b> B-20<br><b>Punto Kilométrico:</b> 16.0 km"
      },
      "geometry": {
        "type": "Point",
        "coordinates": [
          2.209133,
          41.457825
        ]
      }
    },
    {
      "type": "Feature",
      "properties": {
        "description": "<b>Fecha de Creación:</b> 01/07/2026 - 23:00:00<br><b>Dirección:</b> Ambos Sentidos<br><b>Carretera:</b> C-32<br><b>Punto Kilométrico:</b> 59.0 km"
      },
      "geometry": {
        "type": "Point",
        "coordinates": [
          2.1014948,
          41.381687
        ]
      }
    },
    {
      "type": "Feature",
      "properties": {
        "description": "<b>Fecha de Creación:</b> 01/07/2026 - 23:00:00<br><b>Dirección:</b> Ambos Sentidos<br><b>Carretera:</b> B-10<br><b>Punto Kilométrico:</b> 5.0 km"
      },
      "geometry": {
        "type": "Point",
        "coordinates": [
          2.2067087,
          41.442913
        ]
      }
    },
    {
      "type": "Feature",
      "properties": {
        "description": "<b>Fecha de Creación:</b> 07/07/2026 - 09:04:16<br><b>Carretera:</b> A-2<br><b>Punto Kilométrico:</b> 548.5 km"
      },
      "geometry": {
        "type": "Point",
        "coordinates": [
          1.5302428,
          41.610344
        ]
      }
    },
    {
      "type": "Feature",
      "properties": {
        "description": "<b>Fecha de Creación:</b> 08/07/2026 - 07:00:00<br><b>Dirección:</b> Ambos Sentidos<br><b>Carretera:</b> GI-540<br><b>Punto Kilométrico:</b> 0.0 km"
      },
      "geometry": {
        "type": "Point",
        "coordinates": [
          2.6679435,
          41.96251
        ]
      }
    },
    {
      "type": "Feature",
      "properties": {
        "description": "<b>Fecha de Creación:</b> 20/07/2026 - 08:00:00<br><b>Carretera:</b> N-141g<br><b>Punto Kilométrico:</b> 1.6 km"
      },
      "geometry": {
        "type": "Point",
        "coordinates": [
          1.630831,
          41.73717
        ]
      }
    },
    {
      "type": "Feature",
      "properties": {
        "description": "<b>Fecha de Creación:</b> 20/07/2026 - 08:00:00<br><b>Carretera:</b> BP-1432<br><b>Punto Kilométrico:</b> 22.2 km"
      },
      "geometry": {
        "type": "Point",
        "coordinates": [
          2.1965647,
          41.689583
        ]
      }
    },
    {
      "type": "Feature",
      "properties": {
        "description": "<b>Fecha de Creación:</b> 20/07/2026 - 10:00:00<br><b>Dirección:</b> Ambos Sentidos<br><b>Carretera:</b> N-II<br><b>Punto Kilométrico:</b> 631.0 km"
      },
      "geometry": {
        "type": "Point",
        "coordinates": [
          2.3735776,
          41.49362
        ]
      }
    },
    {
      "type": "Feature",
      "properties": {
        "description": "<b>Fecha de Creación:</b> 27/07/2026 - 22:00:00<br><b>Dirección:</b> Ambos Sentidos<br><b>Carretera:</b> GI-555<br><b>Punto Kilométrico:</b> 0.0 km"
      },
      "geometry": {
        "type": "Point",
        "coordinates": [
          2.6627393,
          41.754757
        ]
      }
    },
    {
      "type": "Feature",
      "properties": {
        "description": "<b>Fecha de Creación:</b> 27/07/2026 - 10:00:22<br><b>Dirección:</b> Ambos Sentidos<br><b>Carretera:</b> BV-1435<br><b>Punto Kilométrico:</b> 11.2 km"
      },
      "geometry": {
        "type": "Point",
        "coordinates": [
          2.228862,
          41.66457
        ]
      }
    },
    {
      "type": "Feature",
      "properties": {
        "description": "<b>Fecha de Creación:</b> 27/07/2026 - 10:07:21<br><b>Dirección:</b> Ambos Sentidos<br><b>Carretera:</b> BV-4316<br><b>Punto Kilométrico:</b> 9.8 km"
      },
      "geometry": {
        "type": "Point",
        "coordinates": [
          2.1024814,
          41.90017
        ]
      }
    },
    {
      "type": "Feature",
      "properties": {
        "description": "<b>Fecha de Creación:</b> 30/07/2026 - 07:18:44<br><b>Dirección:</b> Ambos Sentidos<br><b>Carretera:</b> C-17<br><b>Punto Kilométrico:</b> 33.7 km"
      },
      "geometry": {
        "type": "Point",
        "coordinates": [
          2.245194,
          41.77985
        ]
      }
    },
    {
      "type": "Feature",
      "properties": {
        "description": "<b>Fecha de Creación:</b> 30/07/2026 - 07:21:01<br><b>Dirección:</b> Ambos Sentidos<br><b>Carretera:</b> C-32<br><b>Punto Kilométrico:</b> 93.0 km"
      },
      "geometry": {
        "type": "Point",
        "coordinates": [
          2.3962514,
          41.518593
        ]
      }
    },
    {
      "type": "Feature",
      "properties": {
        "description": "<b>Fecha de Creación:</b> 30/07/2026 - 07:22:30<br><b>Dirección:</b> Ambos Sentidos<br><b>Carretera:</b> C-17<br><b>Punto Kilométrico:</b> 13.0 km"
      },
      "geometry": {
        "type": "Point",
        "coordinates": [
          2.2312055,
          41.558167
        ]
      }
    },
    {
      "type": "Feature",
      "properties": {
        "description": "<b>Fecha de Creación:</b> 30/07/2026 - 07:32:49<br><b>Dirección:</b> Ambos Sentidos<br><b>Carretera:</b> N-II<br><b>Punto Kilométrico:</b> 664.3 km"
      },
      "geometry": {
        "type": "Point",
        "coordinates": [
          2.6237853,
          41.603924
        ]
      }
    },
    {
      "type": "Feature",
      "properties": {
        "description": "<b>Fecha de Creación:</b> 06/08/2026 - 07:00:00<br><b>Dirección:</b> Ambos Sentidos<br><b>Carretera:</b> BV-5303<br><b>Punto Kilométrico:</b> 4.6 km"
      },
      "geometry": {
        "type": "Point",
        "coordinates": [
          2.249208,
          41.84452
        ]
      }
    },
    {
      "type": "Feature",
      "properties": {
        "description": "<b>Fecha de Creación:</b> 30/08/2026 - 22:00:00<br><b>Dirección:</b> Ambos Sentidos<br><b>Carretera:</b> C-153<br><b>Punto Kilométrico:</b> 4.0 km"
      },
      "geometry": {
        "type": "Point",
        "coordinates": [
          2.398032,
          42.05016
        ]
      }
    },
    {
      "type": "Feature",
      "properties": {
        "description": "<b>Fecha de Creación:</b> 01/09/2026 - 00:00:00<br><b>Dirección:</b> Ambos Sentidos<br><b>Carretera:</b> GI-673<br><b>Punto Kilométrico:</b> 1.7 km"
      },
      "geometry": {
        "type": "Point",
        "coordinates": [
          2.7991111,
          41.8376
        ]
      }
    },
    {
      "type": "Feature",
      "properties": {
        "description": "<b>Fecha de Creación:</b> 01/09/2026 - 08:00:00<br><b>Dirección:</b> Ambos Sentidos<br><b>Carretera:</b> GI-673<br><b>Punto Kilométrico:</b> 1.7 km"
      },
      "geometry": {
        "type": "Point",
        "coordinates": [
          2.7991111,
          41.8376
        ]
      }
    },
    {
      "type": "Feature",
      "properties": {
        "description": "<b>Fecha de Creación:</b> 02/09/2026 - 08:00:00<br><b>Dirección:</b> Ambos Sentidos<br><b>Carretera:</b> C-242<br><b>Punto Kilométrico:</b> 31.0 km"
      },
      "geometry": {
        "type": "Point",
        "coordinates": [
          0.88153946,
          41.319313
        ]
      }
    },
    {
      "type": "Feature",
      "properties": {
        "description": "<b>Fecha de Creación:</b> 03/09/2026 - 15:38:55<br><b>Dirección:</b> Ambos Sentidos<br><b>Impacto: </b> Imposible circular<br><b>Carretera:</b> C-1413B<br><b>Punto Kilométrico:</b> 0.0 km"
      },
      "geometry": {
        "type": "Point",
        "coordinates": [
          2.1684008,
          41.724567
        ]
      }
    },
    {
      "type": "Feature",
      "properties": {
        "description": "<b>Fecha de Creación:</b> 07/09/2026 - 07:00:00<br><b>Dirección:</b> Ambos Sentidos<br><b>Carretera:</b> C-13<br><b>Punto Kilométrico:</b> 91.3 km"
      },
      "geometry": {
        "type": "Point",
        "coordinates": [
          0.9178532,
          42.187325
        ]
      }
    },
    {
      "type": "Feature",
      "properties": {
        "description": "<b>Fecha de Creación:</b> 07/09/2026 - 07:00:00<br><b>Dirección:</b> Ambos Sentidos<br><b>Carretera:</b> C-13<br><b>Punto Kilométrico:</b> 85.5 km"
      },
      "geometry": {
        "type": "Point",
        "coordinates": [
          0.894508,
          42.16187
        ]
      }
    },
    {
      "type": "Feature",
      "properties": {
        "description": "<b>Fecha de Creación:</b> 07/09/2026 - 07:00:00<br><b>Dirección:</b> Ambos Sentidos<br><b>Carretera:</b> BP-5002<br><b>Punto Kilométrico:</b> 6.0 km"
      },
      "geometry": {
        "type": "Point",
        "coordinates": [
          2.2831688,
          41.579765
        ]
      }
    },
    {
      "type": "Feature",
      "properties": {
        "description": "<b>Fecha de Creación:</b> 07/09/2026 - 07:00:00<br><b>Dirección:</b> Ambos Sentidos<br><b>Carretera:</b> BP-5002<br><b>Punto Kilométrico:</b> 1.5 km"
      },
      "geometry": {
        "type": "Point",
        "coordinates": [
          2.2867286,
          41.597908
        ]
      }
    },
    {
      "type": "Feature",
      "properties": {
        "description": "<b>Fecha de Creación:</b> 07/09/2026 - 07:00:00<br><b>Dirección:</b> Ambos Sentidos<br><b>Carretera:</b> C-17<br><b>Punto Kilométrico:</b> 0.0 km"
      },
      "geometry": {
        "type": "Point",
        "coordinates": [
          2.1836548,
          41.48479
        ]
      }
    },
    {
      "type": "Feature",
      "properties": {
        "description": "<b>Fecha de Creación:</b> 07/09/2026 - 07:00:00<br><b>Dirección:</b> Ambos Sentidos<br><b>Carretera:</b> C-17<br><b>Punto Kilométrico:</b> 5.7 km"
      },
      "geometry": {
        "type": "Point",
        "coordinates": [
          2.210918,
          41.52712
        ]
      }
    },
    {
      "type": "Feature",
      "properties": {
        "description": "<b>Fecha de Creación:</b> 07/09/2026 - 08:00:00<br><b>Dirección:</b> Ambos Sentidos<br><b>Carretera:</b> TV-7041<br><b>Punto Kilométrico:</b> 3.0 km"
      },
      "geometry": {
        "type": "Point",
        "coordinates": [
          1.1104611,
          41.285194
        ]
      }
    },
    {
      "type": "Feature",
      "properties": {
        "description": "<b>Fecha de Creación:</b> 07/09/2026 - 08:00:00<br><b>Dirección:</b> Ambos Sentidos<br><b>Carretera:</b> C-242<br><b>Punto Kilométrico:</b> 24.5 km"
      },
      "geometry": {
        "type": "Point",
        "coordinates": [
          0.88153946,
          41.319313
        ]
      }
    },
    {
      "type": "Feature",
      "properties": {
        "description": "<b>Fecha de Creación:</b> 07/09/2026 - 08:00:00<br><b>Dirección:</b> Ambos Sentidos<br><b>Carretera:</b> B-500<br><b>Punto Kilométrico:</b> 0.0 km"
      },
      "geometry": {
        "type": "Point",
        "coordinates": [
          2.25394,
          41.49192
        ]
      }
    },
    {
      "type": "Feature",
      "properties": {
        "description": "<b>Fecha de Creación:</b> 07/09/2026 - 08:00:00<br><b>Dirección:</b> Ambos Sentidos<br><b>Carretera:</b> C-242<br><b>Punto Kilométrico:</b> 37.0 km"
      },
      "geometry": {
        "type": "Point",
        "coordinates": [
          0.9057833,
          41.26491
        ]
      }
    },
    {
      "type": "Feature",
      "properties": {
        "description": "<b>Fecha de Creación:</b> 07/09/2026 - 08:00:00<br><b>Dirección:</b> Ambos Sentidos<br><b>Carretera:</b> GI-503<br><b>Punto Kilométrico:</b> 0.0 km"
      },
      "geometry": {
        "type": "Point",
        "coordinates": [
          2.6737614,
          42.363243
        ]
      }
    },
    {
      "type": "Feature",
      "properties": {
        "description": "<b>Fecha de Creación:</b> 07/09/2026 - 08:00:00<br><b>Dirección:</b> Ambos Sentidos<br><b>Carretera:</b> B-682<br><b>Punto Kilométrico:</b> 0.0 km"
      },
      "geometry": {
        "type": "Point",
        "coordinates": [
          2.7511637,
          41.66546
        ]
      }
    },
    {
      "type": "Feature",
      "properties": {
        "description": "<b>Fecha de Creación:</b> 07/09/2026 - 08:00:00<br><b>Dirección:</b> Ambos Sentidos<br><b>Carretera:</b> BV-2411<br><b>Punto Kilométrico:</b> 13.0 km"
      },
      "geometry": {
        "type": "Point",
        "coordinates": [
          1.7970734,
          41.355495
        ]
      }
    },
    {
      "type": "Feature",
      "properties": {
        "description": "<b>Fecha de Creación:</b> 07/09/2026 - 22:00:00<br><b>Dirección:</b> Ambos Sentidos<br><b>Carretera:</b> AP-7<br><b>Punto Kilométrico:</b> 207.0 km"
      },
      "geometry": {
        "type": "Point",
        "coordinates": [
          2.6817744,
          41.744823
        ]
      }
    },
    {
      "type": "Feature",
      "properties": {
        "description": "<b>Fecha de Creación:</b> 07/09/2026 - 22:00:00<br><b>Dirección:</b> Ambos Sentidos<br><b>Carretera:</b> AP-7<br><b>Punto Kilométrico:</b> 92.0 km"
      },
      "geometry": {
        "type": "Point",
        "coordinates": [
          2.8654997,
          42.464306
        ]
      }
    },
    {
      "type": "Feature",
      "properties": {
        "description": "<b>Fecha de Creación:</b> 07/09/2026 - 22:00:00<br><b>Carretera:</b> B-140<br><b>Punto Kilométrico:</b> 1.0 km"
      },
      "geometry": {
        "type": "Point",
        "coordinates": [
          2.1223385,
          41.53302
        ]
      }
    },
    {
      "type": "Feature",
      "properties": {
        "description": "<b>Fecha de Creación:</b> 07/09/2026 - 22:00:00<br><b>Dirección:</b> Ambos Sentidos<br><b>Carretera:</b> C-59<br><b>Punto Kilométrico:</b> 4.9 km"
      },
      "geometry": {
        "type": "Point",
        "coordinates": [
          2.1806328,
          41.599655
        ]
      }
    },
    {
      "type": "Feature",
      "properties": {
        "description": "<b>Fecha de Creación:</b> 07/09/2026 - 22:00:00<br><b>Dirección:</b> Ambos Sentidos<br><b>Carretera:</b> C-59<br><b>Punto Kilométrico:</b> 0.5 km"
      },
      "geometry": {
        "type": "Point",
        "coordinates": [
          2.1862392,
          41.559284
        ]
      }
    },
    {
      "type": "Feature",
      "properties": {
        "description": "<b>Fecha de Creación:</b> 05/10/0260 - 08:00:00<br><b>Dirección:</b> Ambos Sentidos<br><b>Carretera:</b> GIV-6502<br><b>Punto Kilométrico:</b> 4.6 km"
      },
      "geometry": {
        "type": "Point",
        "coordinates": [
          3.2047517,
          41.980663
        ]
      }
    },
    {
      "type": "Feature",
      "properties": {
        "description": "<b>Fecha de Creación:</b> 12/09/2026 - 08:00:00<br><b>Dirección:</b> Ambos Sentidos<br><b>Carretera:</b> C-233<br><b>Punto Kilométrico:</b> 69.4 km"
      },
      "geometry": {
        "type": "Point",
        "coordinates": [
          0.9251205,
          41.54276
        ]
      }
    },
    {
      "type": "Feature",
      "properties": {
        "description": "<b>Fecha de Creación:</b> 14/09/2026 - 08:00:00<br><b>Dirección:</b> Ambos Sentidos<br><b>Carretera:</b> BP-1103<br><b>Punto Kilométrico:</b> 1.0 km"
      },
      "geometry": {
        "type": "Point",
        "coordinates": [
          1.8339759,
          41.601048
        ]
      }
    },
    {
      "type": "Feature",
      "properties": {
        "description": "<b>Fecha de Creación:</b> 14/09/2026 - 08:00:00<br><b>Dirección:</b> Ambos Sentidos<br><b>Carretera:</b> T-710<br><b>Punto Kilométrico:</b> 0.0 km"
      },
      "geometry": {
        "type": "Point",
        "coordinates": [
          0.8170403,
          41.154015
        ]
      }
    },
    {
      "type": "Feature",
      "properties": {
        "description": "<b>Fecha de Creación:</b> 14/09/2026 - 22:00:00<br><b>Dirección:</b> Ambos Sentidos<br><b>Carretera:</b> B-500<br><b>Punto Kilométrico:</b> 0.0 km"
      },
      "geometry": {
        "type": "Point",
        "coordinates": [
          2.25394,
          41.49192
        ]
      }
    },
    {
      "type": "Feature",
      "properties": {
        "description": "<b>Fecha de Creación:</b> 01/09/2026 - 10:00:00<br><b>Dirección:</b> Ambos Sentidos<br><b>Carretera:</b> N-420<br><b>Punto Kilométrico:</b> 824.0 km"
      },
      "geometry": {
        "type": "Point",
        "coordinates": [
          0.65269583,
          41.094543
        ]
      }
    },
    {
      "type": "Feature",
      "properties": {
        "description": "<b>Fecha de Creación:</b> 21/09/2026 - 08:00:00<br><b>Dirección:</b> Ambos Sentidos<br><b>Carretera:</b> B-124<br><b>Punto Kilométrico:</b> 19.0 km"
      },
      "geometry": {
        "type": "Point",
        "coordinates": [
          2.0017397,
          41.780277
        ]
      }
    },
    {
      "type": "Feature",
      "properties": {
        "description": "<b>Fecha de Creación:</b> 21/09/2026 - 08:00:00<br><b>Carretera:</b> L-500<br><b>Punto Kilométrico:</b> 3.0 km"
      },
      "geometry": {
        "type": "Point",
        "coordinates": [
          0.74002254,
          42.431973
        ]
      }
    },
    {
      "type": "Feature",
      "properties": {
        "description": "<b>Fecha de Creación:</b> 21/09/2026 - 10:00:00<br><b>Dirección:</b> Ambos Sentidos<br><b>Carretera:</b> C-35<br><b>Punto Kilométrico:</b> 40.0 km"
      },
      "geometry": {
        "type": "Point",
        "coordinates": [
          2.4681337,
          41.667625
        ]
      }
    },
    {
      "type": "Feature",
      "properties": {
        "description": "<b>Fecha de Creación:</b> 21/09/2026 - 10:00:00<br><b>Dirección:</b> Ambos Sentidos<br><b>Carretera:</b> C-35<br><b>Punto Kilométrico:</b> 28.0 km"
      },
      "geometry": {
        "type": "Point",
        "coordinates": [
          2.2805092,
          41.57535
        ]
      }
    },
    {
      "type": "Feature",
      "properties": {
        "description": "<b>Fecha de Creación:</b> 21/09/2026 - 10:00:00<br><b>Dirección:</b> Ambos Sentidos<br><b>Carretera:</b> C-60<br><b>Punto Kilométrico:</b> 0.0 km"
      },
      "geometry": {
        "type": "Point",
        "coordinates": [
          2.3352928,
          41.595535
        ]
      }
    },
    {
      "type": "Feature",
      "properties": {
        "description": "<b>Fecha de Creación:</b> 21/09/2026 - 10:00:00<br><b>Dirección:</b> Ambos Sentidos<br><b>Carretera:</b> C-17<br><b>Punto Kilométrico:</b> 0.0 km"
      },
      "geometry": {
        "type": "Point",
        "coordinates": [
          2.1829557,
          41.461136
        ]
      }
    },
    {
      "type": "Feature",
      "properties": {
        "description": "<b>Fecha de Creación:</b> 21/09/2026 - 10:00:00<br><b>Dirección:</b> Ambos Sentidos<br><b>Carretera:</b> BP-5002<br><b>Punto Kilométrico:</b> 1.0 km"
      },
      "geometry": {
        "type": "Point",
        "coordinates": [
          2.2867286,
          41.597908
        ]
      }
    },
    {
      "type": "Feature",
      "properties": {
        "description": "<b>Fecha de Creación:</b> 21/09/2026 - 10:00:00<br><b>Dirección:</b> Ambos Sentidos<br><b>Carretera:</b> C-59<br><b>Punto Kilométrico:</b> 0.0 km"
      },
      "geometry": {
        "type": "Point",
        "coordinates": [
          2.1862392,
          41.559284
        ]
      }
    },
    {
      "type": "Feature",
      "properties": {
        "description": "<b>Fecha de Creación:</b> 21/09/2026 - 10:00:00<br><b>Dirección:</b> Ambos Sentidos<br><b>Carretera:</b> C-31<br><b>Punto Kilométrico:</b> 208.0 km"
      },
      "geometry": {
        "type": "Point",
        "coordinates": [
          2.2736342,
          41.465363
        ]
      }
    },
    {
      "type": "Feature",
      "properties": {
        "description": "<b>Fecha de Creación:</b> 21/09/2026 - 10:00:00<br><b>Carretera:</b> C-31<br><b>Punto Kilométrico:</b> 211.0 km"
      },
      "geometry": {
        "type": "Point",
        "coordinates": [
          2.2736342,
          41.465363
        ]
      }
    },
    {
      "type": "Feature",
      "properties": {
        "description": "<b>Fecha de Creación:</b> 21/09/2026 - 10:00:00<br><b>Carretera:</b> C-31<br><b>Punto Kilométrico:</b> 216.0 km"
      },
      "geometry": {
        "type": "Point",
        "coordinates": [
          2.2230196,
          41.430717
        ]
      }
    },
    {
      "type": "Feature",
      "properties": {
        "description": "<b>Fecha de Creación:</b> 21/09/2026 - 10:00:00<br><b>Dirección:</b> Ambos Sentidos<br><b>Carretera:</b> N-II<br><b>Punto Kilométrico:</b> 631.0 km"
      },
      "geometry": {
        "type": "Point",
        "coordinates": [
          2.554293,
          41.579548
        ]
      }
    },
    {
      "type": "Feature",
      "properties": {
        "description": "<b>Fecha de Creación:</b> 21/09/2026 - 10:00:00<br><b>Dirección:</b> Ambos Sentidos<br><b>Carretera:</b> BV-5105<br><b>Punto Kilométrico:</b> 0.0 km"
      },
      "geometry": {
        "type": "Point",
        "coordinates": [
          2.345362,
          41.633186
        ]
      }
    },
    {
      "type": "Feature",
      "properties": {
        "description": "<b>Fecha de Creación:</b> 21/09/2026 - 22:00:00<br><b>Dirección:</b> Ambos Sentidos<br><b>Carretera:</b> N-II<br><b>Punto Kilométrico:</b> 635.0 km"
      },
      "geometry": {
        "type": "Point",
        "coordinates": [
          2.4211876,
          41.521168
        ]
      }
    },
    {
      "type": "Feature",
      "properties": {
        "description": "<b>Fecha de Creación:</b> 21/09/2026 - 22:00:00<br><b>Dirección:</b> Ambos Sentidos<br><b>Carretera:</b> B-140<br><b>Punto Kilométrico:</b> 1.0 km"
      },
      "geometry": {
        "type": "Point",
        "coordinates": [
          2.1223385,
          41.53302
        ]
      }
    },
    {
      "type": "Feature",
      "properties": {
        "description": "<b>Fecha de Creación:</b> 21/09/2026 - 22:00:00<br><b>Dirección:</b> Ambos Sentidos<br><b>Carretera:</b> C-31<br><b>Punto Kilométrico:</b> 208.0 km"
      },
      "geometry": {
        "type": "Point",
        "coordinates": [
          2.2736342,
          41.465363
        ]
      }
    },
    {
      "type": "Feature",
      "properties": {
        "description": "<b>Fecha de Creación:</b> 22/09/2026 - 08:22:53<br><b>Carretera:</b> A-2<br><b>Punto Kilométrico:</b> 570.0 km"
      },
      "geometry": {
        "type": "Point",
        "coordinates": [
          1.9133909,
          41.499187
        ]
      }
    },
    {
      "type": "Feature",
      "properties": {
        "description": "<b>Fecha de Creación:</b> 24/09/2026 - 15:32:04<br><b>Dirección:</b> Ambos Sentidos<br><b>Carretera:</b> C-25<br><b>Punto Kilométrico:</b> 125.0 km"
      },
      "geometry": {
        "type": "Point",
        "coordinates": [
          1.7173177,
          41.736664
        ]
      }
    },
    {
      "type": "Feature",
      "properties": {
        "description": "<b>Fecha de Creación:</b> 27/09/2026 - 19:00:00<br><b>Dirección:</b> Ambos Sentidos<br><b>Carretera:</b> C-65<br><b>Punto Kilométrico:</b> 9.3 km"
      },
      "geometry": {
        "type": "Point",
        "coordinates": [
          2.8612933,
          41.888645
        ]
      }
    },
    {
      "type": "Feature",
      "properties": {
        "description": "<b>Fecha de Creación:</b> 27/09/2026 - 22:00:00<br><b>Dirección:</b> Ambos Sentidos<br><b>Carretera:</b> GI-543<br><b>Punto Kilométrico:</b> 0.0 km"
      },
      "geometry": {
        "type": "Point",
        "coordinates": [
          2.387707,
          41.84847
        ]
      }
    },
    {
      "type": "Feature",
      "properties": {
        "description": "<b>Fecha de Creación:</b> 28/09/2026 - 08:00:00<br><b>Carretera:</b> T-319<br><b>Punto Kilométrico:</b> 1.0 km"
      },
      "geometry": {
        "type": "Point",
        "coordinates": [
          1.1548355,
          41.10135
        ]
      }
    },
    {
      "type": "Feature",
      "properties": {
        "description": "<b>Fecha de Creación:</b> 28/09/2026 - 08:00:00<br><b>Dirección:</b> Ambos Sentidos<br><b>Impacto: </b> Imposible circular<br><b>Carretera:</b> B-212<br><b>Punto Kilométrico:</b> 0.5 km"
      },
      "geometry": {
        "type": "Point",
        "coordinates": [
          1.6156617,
          41.32483
        ]
      }
    },
    {
      "type": "Feature",
      "properties": {
        "description": "<b>Fecha de Creación:</b> 28/09/2026 - 08:00:00<br><b>Dirección:</b> Ambos Sentidos<br><b>Carretera:</b> C-13<br><b>Punto Kilométrico:</b> 133.7 km"
      },
      "geometry": {
        "type": "Point",
        "coordinates": [
          1.1543391,
          42.45177
        ]
      }
    },
    {
      "type": "Feature",
      "properties": {
        "description": "<b>Fecha de Creación:</b> 28/09/2026 - 07:00:00<br><b>Dirección:</b> Ambos Sentidos<br><b>Carretera:</b> N-260<br><b>Punto Kilométrico:</b> 49.1 km"
      },
      "geometry": {
        "type": "Point",
        "coordinates": [
          2.838418,
          42.223576
        ]
      }
    },
    {
      "type": "Feature",
      "properties": {
        "description": "<b>Fecha de Creación:</b> 28/09/2026 - 08:00:00<br><b>Dirección:</b> Ambos Sentidos<br><b>Carretera:</b> C-152<br><b>Punto Kilométrico:</b> 42.1 km"
      },
      "geometry": {
        "type": "Point",
        "coordinates": [
          2.4851546,
          42.17975
        ]
      }
    },
    {
      "type": "Feature",
      "properties": {
        "description": "<b>Fecha de Creación:</b> 28/09/2026 - 08:00:00<br><b>Dirección:</b> Ambos Sentidos<br><b>Carretera:</b> C-150a<br><b>Punto Kilométrico:</b> 14.6 km"
      },
      "geometry": {
        "type": "Point",
        "coordinates": [
          2.775214,
          42.11097
        ]
      }
    },
    {
      "type": "Feature",
      "properties": {
        "description": "<b>Fecha de Creación:</b> 28/09/2026 - 08:00:00<br><b>Dirección:</b> Ambos Sentidos<br><b>Carretera:</b> C-14<br><b>Punto Kilométrico:</b> 10.5 km"
      },
      "geometry": {
        "type": "Point",
        "coordinates": [
          1.1768568,
          41.263058
        ]
      }
    },
    {
      "type": "Feature",
      "properties": {
        "description": "<b>Fecha de Creación:</b> 28/09/2026 - 15:09:36<br><b>Carretera:</b> C-25<br><b>Punto Kilométrico:</b> 208.5 km"
      },
      "geometry": {
        "type": "Point",
        "coordinates": [
          2.4852676,
          41.853374
        ]
      }
    },
    {
      "type": "Feature",
      "properties": {
        "description": "<b>Fecha de Creación:</b> 28/09/2026 - 22:00:00<br><b>Dirección:</b> Ambos Sentidos<br><b>Carretera:</b> C-66<br><b>Punto Kilométrico:</b> 33.5 km"
      },
      "geometry": {
        "type": "Point",
        "coordinates": [
          2.8265176,
          42.031925
        ]
      }
    },
    {
      "type": "Feature",
      "properties": {
        "description": "<b>Fecha de Creación:</b> 28/09/2026 - 22:30:00<br><b>Dirección:</b> Ambos Sentidos<br><b>Impacto: </b> Imposible circular<br><b>Carretera:</b> C-17<br><b>Punto Kilométrico:</b> 5.7 km"
      },
      "geometry": {
        "type": "Point",
        "coordinates": [
          2.1836548,
          41.48479
        ]
      }
    },
    {
      "type": "Feature",
      "properties": {
        "description": "<b>Fecha de Creación:</b> 29/09/2026 - 08:00:00<br><b>Dirección:</b> Ambos Sentidos<br><b>Carretera:</b> A-7<br><b>Punto Kilométrico:</b> 1153.5 km"
      },
      "geometry": {
        "type": "Point",
        "coordinates": [
          1.1567775,
          41.109516
        ]
      }
    },
    {
      "type": "Feature",
      "properties": {
        "description": "<b>Fecha de Creación:</b> 29/09/2026 - 14:35:33<br><b>Carretera:</b> C-17<br><b>Punto Kilométrico:</b> 1.1 km"
      },
      "geometry": {
        "type": "Point",
        "coordinates": [
          2.1783395,
          41.46899
        ]
      }
    },
    {
      "type": "Feature",
      "properties": {
        "description": "<b>Fecha de Creación:</b> 29/09/2026 - 15:11:58<br><b>Dirección:</b> Ambos Sentidos<br><b>Carretera:</b> BV-1415<br><b>Punto Kilométrico:</b> 5.9 km"
      },
      "geometry": {
        "type": "Point",
        "coordinates": [
          2.1244574,
          41.448765
        ]
      }
    },
    {
      "type": "Feature",
      "properties": {
        "description": "<b>Fecha de Creación:</b> 29/09/2026 - 21:30:00<br><b>Dirección:</b> Ambos Sentidos<br><b>Carretera:</b> A-2<br><b>Punto Kilométrico:</b> 604.0 km"
      },
      "geometry": {
        "type": "Point",
        "coordinates": [
          2.0727746,
          41.346813
        ]
      }
    },
    {
      "type": "Feature",
      "properties": {
        "description": "<b>Fecha de Creación:</b> 29/09/2026 - 21:30:00<br><b>Carretera:</b> A-2<br><b>Punto Kilométrico:</b> 602.3 km"
      },
      "geometry": {
        "type": "Point",
        "coordinates": [
          2.0181005,
          41.391663
        ]
      }
    },
    {
      "type": "Feature",
      "properties": {
        "description": "<b>Fecha de Creación:</b> 29/09/2026 - 21:30:00<br><b>Dirección:</b> Ambos Sentidos<br><b>Carretera:</b> B-10<br><b>Punto Kilométrico:</b> 12.1 km"
      },
      "geometry": {
        "type": "Point",
        "coordinates": [
          2.092679,
          41.343555
        ]
      }
    },
    {
      "type": "Feature",
      "properties": {
        "description": "<b>Fecha de Creación:</b> 29/09/2026 - 21:30:00<br><b>Carretera:</b> B-20<br><b>Punto Kilométrico:</b> 19.3 km"
      },
      "geometry": {
        "type": "Point",
        "coordinates": [
          2.2006028,
          41.451885
        ]
      }
    },
    {
      "type": "Feature",
      "properties": {
        "description": "<b>Fecha de Creación:</b> 29/09/2026 - 22:00:00<br><b>Carretera:</b> B-20<br><b>Punto Kilométrico:</b> 23.5 km"
      },
      "geometry": {
        "type": "Point",
        "coordinates": [
          2.2710779,
          41.47171
        ]
      }
    },
    {
      "type": "Feature",
      "properties": {
        "description": "<b>Fecha de Creación:</b> 30/09/2026 - 06:17:35<br><b>Impacto: </b> Retención<br><b>Carretera:</b> B-10<br><b>Punto Kilométrico:</b> 9.5 km"
      },
      "geometry": {
        "type": "Point",
        "coordinates": [
          2.2231147,
          41.413033
        ]
      }
    },
    {
      "type": "Feature",
      "properties": {
        "description": "<b>Fecha de Creación:</b> 30/09/2026 - 06:00:00<br><b>Carretera:</b> A-2<br><b>Punto Kilométrico:</b> 604.0 km"
      },
      "geometry": {
        "type": "Point",
        "coordinates": [
          2.009485,
          41.408627
        ]
      }
    },
    {
      "type": "Feature",
      "properties": {
        "description": "<b>Fecha de Creación:</b> 30/09/2026 - 06:00:00<br><b>Dirección:</b> Ambos Sentidos<br><b>Carretera:</b> A-2<br><b>Punto Kilométrico:</b> 596.5 km"
      },
      "geometry": {
        "type": "Point",
        "coordinates": [
          2.0012174,
          41.42511
        ]
      }
    },
    {
      "type": "Feature",
      "properties": {
        "description": "<b>Fecha de Creación:</b> 30/09/2026 - 06:00:00<br><b>Dirección:</b> Ambos Sentidos<br><b>Carretera:</b> B-20<br><b>Punto Kilométrico:</b> 22.0 km"
      },
      "geometry": {
        "type": "Point",
        "coordinates": [
          2.2710779,
          41.47171
        ]
      }
    },
    {
      "type": "Feature",
      "properties": {
        "description": "<b>Fecha de Creación:</b> 30/09/2026 - 06:00:00<br><b>Carretera:</b> B-20<br><b>Punto Kilométrico:</b> 21.0 km"
      },
      "geometry": {
        "type": "Point",
        "coordinates": [
          2.290477,
          41.47809
        ]
      }
    },
    {
      "type": "Feature",
      "properties": {
        "description": "<b>Fecha de Creación:</b> 30/09/2026 - 08:00:00<br><b>Carretera:</b> C-32<br><b>Punto Kilométrico:</b> 45.0 km"
      },
      "geometry": {
        "type": "Point",
        "coordinates": [
          1.9469118,
          41.266018
        ]
      }
    },
    {
      "type": "Feature",
      "properties": {
        "description": "<b>Fecha de Creación:</b> 30/09/2026 - 08:00:00<br><b>Dirección:</b> Ambos Sentidos<br><b>Carretera:</b> GIV-6424<br><b>Punto Kilométrico:</b> 2.6 km"
      },
      "geometry": {
        "type": "Point",
        "coordinates": [
          2.9768786,
          42.060867
        ]
      }
    },
    {
      "type": "Feature",
      "properties": {
        "description": "<b>Fecha de Creación:</b> 30/09/2026 - 09:00:00<br><b>Dirección:</b> Ambos Sentidos<br><b>Carretera:</b> C-233<br><b>Punto Kilométrico:</b> 0.0 km"
      },
      "geometry": {
        "type": "Point",
        "coordinates": [
          0.55109143,
          41.238876
        ]
      }
    },
    {
      "type": "Feature",
      "properties": {
        "description": "<b>Fecha de Creación:</b> 30/09/2026 - 08:00:00<br><b>Dirección:</b> Ambos Sentidos<br><b>Impacto: </b> Imposible circular<br><b>Carretera:</b> C-14<br><b>Punto Kilométrico:</b> 149.1 km"
      },
      "geometry": {
        "type": "Point",
        "coordinates": [
          1.303851,
          42.12334
        ]
      }
    },
    {
      "type": "Feature",
      "properties": {
        "description": "<b>Fecha de Creación:</b> 30/09/2026 - 08:00:00<br><b>Dirección:</b> Ambos Sentidos<br><b>Impacto: </b> Imposible circular<br><b>Carretera:</b> C-14<br><b>Punto Kilométrico:</b> 150.2 km"
      },
      "geometry": {
        "type": "Point",
        "coordinates": [
          1.3124086,
          42.138023
        ]
      }
    },
    {
      "type": "Feature",
      "properties": {
        "description": "<b>Fecha de Creación:</b> 30/09/2026 - 07:56:29<br><b>Dirección:</b> Ambos Sentidos<br><b>Carretera:</b> A-2<br><b>Punto Kilométrico:</b> 559.0 km"
      },
      "geometry": {
        "type": "Point",
        "coordinates": [
          1.6975152,
          41.598217
        ]
      }
    },
    {
      "type": "Feature",
      "properties": {
        "description": "<b>Fecha de Creación:</b> 30/09/2026 - 07:59:11<br><b>Carretera:</b> A-2<br><b>Punto Kilométrico:</b> 552.0 km"
      },
      "geometry": {
        "type": "Point",
        "coordinates": [
          1.5920132,
          41.59271
        ]
      }
    },
    {
      "type": "Feature",
      "properties": {
        "description": "<b>Fecha de Creación:</b> 30/09/2026 - 09:00:00<br><b>Carretera:</b> C-31<br><b>Punto Kilométrico:</b> 210.5 km"
      },
      "geometry": {
        "type": "Point",
        "coordinates": [
          2.234146,
          41.44628
        ]
      }
    },
    {
      "type": "Feature",
      "properties": {
        "description": "<b>Fecha de Creación:</b> 30/09/2026 - 10:04:20<br><b>Impacto: </b> Retención<br><b>Carretera:</b> B-10<br><b>Punto Kilométrico:</b> 11.0 km"
      },
      "geometry": {
        "type": "Point",
        "coordinates": [
          2.148051,
          41.34977
        ]
      }
    },
    {
      "type": "Feature",
      "properties": {
        "description": "<b>Fecha de Creación:</b> 28/09/2026 - 07:00:00<br><b>Carretera:</b> C-1412b<br><b>Punto Kilométrico:</b> 16.9 km"
      },
      "geometry": {
        "type": "Point",
        "coordinates": [
          1.1589382,
          42.018856
        ]
      }
    },
    {
      "type": "Feature",
      "properties": {
        "description": "<b>Fecha de Creación:</b> 28/09/2026 - 07:00:00<br><b>Carretera:</b> C-13<br><b>Punto Kilométrico:</b> 91.3 km"
      },
      "geometry": {
        "type": "Point",
        "coordinates": [
          0.9178532,
          42.187325
        ]
      }
    },
    {
      "type": "Feature",
      "properties": {
        "description": "<b>Fecha de Creación:</b> 28/09/2026 - 07:00:00<br><b>Carretera:</b> C-13<br><b>Punto Kilométrico:</b> 82.5 km"
      },
      "geometry": {
        "type": "Point",
        "coordinates": [
          0.894508,
          42.16187
        ]
      }
    },
    {
      "type": "Feature",
      "properties": {
        "description": "<b>Fecha de Creación:</b> 30/09/2026 - 10:45:00<br><b>Carretera:</b> C-31<br><b>Punto Kilométrico:</b> 188.0 km"
      },
      "geometry": {
        "type": "Point",
        "coordinates": [
          2.0280566,
          41.271023
        ]
      }
    },
    {
      "type": "Feature",
      "properties": {
        "description": "<b>Fecha de Creación:</b> 30/09/2026 - 12:56:27<br><b>Impacto: </b> Retención<br><b>Carretera:</b> B-30<br><b>Punto Kilométrico:</b> 10.0 km"
      },
      "geometry": {
        "type": "Point",
        "coordinates": [
          2.119679,
          41.501247
        ]
      }
    },
    {
      "type": "Feature",
      "properties": {
        "description": "<b>Fecha de Creación:</b> 30/09/2026 - 13:47:19<br><b>Impacto: </b> Retención<br><b>Carretera:</b> N-II<br><b>Punto Kilométrico:</b> 697.0 km"
      },
      "geometry": {
        "type": "Point",
        "coordinates": [
          2.7636428,
          41.81562
        ]
      }
    },
    {
      "type": "Feature",
      "properties": {
        "description": "<b>Fecha de Creación:</b> 30/09/2026 - 14:06:25<br><b>Impacto: </b> Retención<br><b>Carretera:</b> C-58<br><b>Punto Kilométrico:</b> 0.0 km"
      },
      "geometry": {
        "type": "Point",
        "coordinates": [
          2.1600533,
          41.481426
        ]
      }
    },
    {
      "type": "Feature",
      "properties": {
        "description": "<b>Fecha de Creación:</b> 30/09/2026 - 14:32:47<br><b>Impacto: </b> Retención<br><b>Carretera:</b> C-33<br><b>Punto Kilométrico:</b> 77.5 km"
      },
      "geometry": {
        "type": "Point",
        "coordinates": [
          2.1829572,
          41.475742
        ]
      }
    },
    {
      "type": "Feature",
      "properties": {
        "description": "<b>Fecha de Creación:</b> 30/09/2026 - 14:52:14<br><b>Dirección:</b> Ambos Sentidos<br><b>Aviso: </b> Corte Total<br><b>Impacto: </b> Imposible circular<br><b>Carretera:</b> L-310<br><b>Punto Kilométrico:</b> 7.8 km"
      },
      "geometry": {
        "type": "Point",
        "coordinates": [
          1.183101,
          41.706482
        ]
      }
    },
    {
      "type": "Feature",
      "properties": {
        "description": "<b>Fecha de Creación:</b> 30/09/2026 - 14:56:18<br><b>Impacto: </b> Retención<br><b>Carretera:</b> B-20<br><b>Punto Kilométrico:</b> 13.0 km"
      },
      "geometry": {
        "type": "Point",
        "coordinates": [
          2.092327,
          41.348667
        ]
      }
    },
    {
      "type": "Feature",
      "properties": {
        "description": "<b>Fecha de Creación:</b> 30/09/2026 - 15:09:08<br><b>Impacto: </b> Retención<br><b>Carretera:</b> AP-7<br><b>Punto Kilométrico:</b> 145.5 km"
      },
      "geometry": {
        "type": "Point",
        "coordinates": [
          2.182317,
          41.54135
        ]
      }
    },
    {
      "type": "Feature",
      "properties": {
        "description": "<b>Fecha de Creación:</b> 30/09/2026 - 15:14:54<br><b>Carretera:</b> N-260<br><b>Punto Kilométrico:</b> 106.5 km"
      },
      "geometry": {
        "type": "Point",
        "coordinates": [
          2.2853475,
          42.198467
        ]
      }
    },
    {
      "type": "Feature",
      "properties": {
        "description": "<b>Fecha de Creación:</b> 30/09/2026 - 15:19:02<br><b>Carretera:</b> C-32<br><b>Punto Kilométrico:</b> 53.0 km"
      },
      "geometry": {
        "type": "Point",
        "coordinates": [
          2.0563354,
          41.331043
        ]
      }
    },
    {
      "type": "Feature",
      "properties": {
        "description": "<b>Fecha de Creación:</b> 30/09/2026 - 15:19:29<br><b>Carretera:</b> A-2<br><b>Punto Kilométrico:</b> 607.0 km"
      },
      "geometry": {
        "type": "Point",
        "coordinates": [
          2.0727746,
          41.346813
        ]
      }
    },
    {
      "type": "Feature",
      "properties": {
        "description": "<b>Fecha de Creación:</b> 21/01/2026 - 21:42:21<br><b>Tipo de Incidente </b> Obras<br><b>Dirección:</b> Creciente<br><b>Impacto: </b> Congestionada<br><b>Carretera:</b> N-634<br><b>Punto Kilométrico:</b> 17.0 km"
      },
      "geometry": {
        "type": "Point",
        "coordinates": [
          -2.1762,
          43.2866
        ]
      }
    },
    {
      "type": "Feature",
      "properties": {
        "description": "<b>Fecha de Creación:</b> 29/06/2026 - 12:22:47<br><b>Tipo de Incidente </b> Obras<br><b>Dirección:</b> unknown<br><b>Impacto: </b> Congestionada<br><b>Carretera:</b> N-634<br><b>Punto Kilométrico:</b> 103.0 km"
      },
      "geometry": {
        "type": "Point",
        "coordinates": [
          -2.8611,
          43.2326
        ]
      }
    },
    {
      "type": "Feature",
      "properties": {
        "description": "<b>Fecha de Creación:</b> 29/06/2026 - 12:24:52<br><b>Tipo de Incidente </b> Obras<br><b>Dirección:</b> Decreciente<br><b>Impacto: </b> Congestionada<br><b>Carretera:</b> N-634<br><b>Punto Kilométrico:</b> 73.0 km"
      },
      "geometry": {
        "type": "Point",
        "coordinates": [
          -2.5446,
          43.178
        ]
      }
    },
    {
      "type": "Feature",
      "properties": {
        "description": "<b>Fecha de Creación:</b> 29/06/2026 - 12:25:56<br><b>Tipo de Incidente </b> Obras<br><b>Dirección:</b> Creciente<br><b>Impacto: </b> Congestionada<br><b>Carretera:</b> N-634<br><b>Punto Kilométrico:</b> 72.0 km"
      },
      "geometry": {
        "type": "Point",
        "coordinates": [
          -2.5489,
          43.1707
        ]
      }
    },
    {
      "type": "Feature",
      "properties": {
        "description": "<b>Fecha de Creación:</b> 03/08/2026 - 22:03:52<br><b>Tipo de Incidente </b> Obras<br><b>Dirección:</b> Creciente<br><b>Impacto: </b> Imposible circular<br><b>Carretera:</b> BI-794<br><b>Punto Kilométrico:</b> 24.0 km"
      },
      "geometry": {
        "type": "Point",
        "coordinates": [
          -3.0925,
          43.3484
        ]
      }
    },
    {
      "type": "Feature",
      "properties": {
        "description": "<b>Fecha de Creación:</b> 10/08/2026 - 11:02:16<br><b>Tipo de Incidente </b> Obras<br><b>Dirección:</b> Creciente<br><b>Impacto: </b> Sin retención<br><b>Carretera:</b> N-240<br><b>Punto Kilométrico:</b> 42.0 km"
      },
      "geometry": {
        "type": "Point",
        "coordinates": [
          -2.7898,
          43.1499
        ]
      }
    },
    {
      "type": "Feature",
      "properties": {
        "description": "<b>Fecha de Creación:</b> 17/08/2026 - 01:54:59<br><b>Tipo de Incidente </b> Obras<br><b>Dirección:</b> unknown<br><b>Impacto: </b> Sin retención<br><b>Carretera:</b> BI-30<br><b>Punto Kilométrico:</b> 26.0 km"
      },
      "geometry": {
        "type": "Point",
        "coordinates": [
          -2.8069,
          43.2561
        ]
      }
    },
    {
      "type": "Feature",
      "properties": {
        "description": "<b>Fecha de Creación:</b> 17/08/2026 - 02:27:45<br><b>Tipo de Incidente </b> Obras<br><b>Dirección:</b> Creciente<br><b>Impacto: </b> Congestionada<br><b>Carretera:</b> BI-30<br><b>Punto Kilométrico:</b> 26.0 km"
      },
      "geometry": {
        "type": "Point",
        "coordinates": [
          -2.8035,
          43.2478
        ]
      }
    },
    {
      "type": "Feature",
      "properties": {
        "description": "<b>Fecha de Creación:</b> 01/09/2026 - 23:42:34<br><b>Tipo de Incidente </b> Obras<br><b>Dirección:</b> Creciente<br><b>Impacto: </b> Sin retención<br><b>Carretera:</b> BI-636<br><b>Punto Kilométrico:</b> 7.0 km"
      },
      "geometry": {
        "type": "Point",
        "coordinates": [
          -2.983,
          43.2457
        ]
      }
    },
    {
      "type": "Feature",
      "properties": {
        "description": "<b>Fecha de Creación:</b> 08/09/2026 - 08:09:17<br><b>Tipo de Incidente </b> Obras<br><b>Dirección:</b> Decreciente<br><b>Impacto: </b> Sin retención<br><b>Carretera:</b> AP-68<br><b>Punto Kilométrico:</b> 22.0 km"
      },
      "geometry": {
        "type": "Point",
        "coordinates": [
          -2.915,
          43.0865
        ]
      }
    },
    {
      "type": "Feature",
      "properties": {
        "description": "<b>Fecha de Creación:</b> 14/09/2026 - 03:24:32<br><b>Tipo de Incidente </b> Obras<br><b>Dirección:</b> Decreciente<br><b>Impacto: </b> Sin retención<br><b>Carretera:</b> AP-1<br><b>Punto Kilométrico:</b> 117.0 km"
      },
      "geometry": {
        "type": "Point",
        "coordinates": [
          -2.5823,
          42.9884
        ]
      }
    },
    {
      "type": "Feature",
      "properties": {
        "description": "<b>Fecha de Creación:</b> 21/09/2026 - 10:40:08<br><b>Tipo de Incidente </b> Obras<br><b>Dirección:</b> unknown<br><b>Impacto: </b> Congestionada<br><b>Carretera:</b> N-1<br><b>Punto Kilométrico:</b> 450.0 km"
      },
      "geometry": {
        "type": "Point",
        "coordinates": [
          -2.0228,
          43.2456
        ]
      }
    },
    {
      "type": "Feature",
      "properties": {
        "description": "<b>Fecha de Creación:</b> 23/09/2026 - 13:06:05<br><b>Tipo de Incidente </b> Obras<br><b>Dirección:</b> unknown<br><b>Impacto: </b> Sin retención<br><b>Carretera:</b> BI-3224<br><b>Punto Kilométrico:</b> 34.0 km"
      },
      "geometry": {
        "type": "Point",
        "coordinates": [
          -2.6686,
          43.3166
        ]
      }
    },
    {
      "type": "Feature",
      "properties": {
        "description": "<b>Fecha de Creación:</b> 24/09/2026 - 08:46:07<br><b>Tipo de Incidente </b> Obras<br><b>Dirección:</b> unknown<br><b>Impacto: </b> Congestionada<br><b>Carretera:</b> BI-3144<br><b>Punto Kilométrico:</b> 31.0 km"
      },
      "geometry": {
        "type": "Point",
        "coordinates": [
          -2.8819,
          43.3676
        ]
      }
    },
    {
      "type": "Feature",
      "properties": {
        "description": "<b>Fecha de Creación:</b> 25/09/2026 - 08:10:50<br><b>Tipo de Incidente </b> Obras<br><b>Dirección:</b> unknown<br><b>Impacto: </b> Sin retención<br><b>Carretera:</b> AP-68<br><b>Punto Kilométrico:</b> 55.0 km"
      },
      "geometry": {
        "type": "Point",
        "coordinates": [
          -2.9029,
          42.8134
        ]
      }
    },
    {
      "type": "Feature",
      "properties": {
        "description": "<b>Fecha de Creación:</b> 25/09/2026 - 21:05:10<br><b>Tipo de Incidente </b> Obras<br><b>Dirección:</b> Decreciente<br><b>Impacto: </b> Sin retención<br><b>Carretera:</b> AP-1<br><b>Punto Kilométrico:</b> 117.0 km"
      },
      "geometry": {
        "type": "Point",
        "coordinates": [
          -2.6127,
          42.9605
        ]
      }
    },
    {
      "type": "Feature",
      "properties": {
        "description": "<b>Fecha de Creación:</b> 28/09/2026 - 08:16:09<br><b>Tipo de Incidente </b> Obras<br><b>Dirección:</b> unknown<br><b>Impacto: </b> Sin retención<br><b>Carretera:</b> AP-68<br><b>Punto Kilométrico:</b> 13.0 km"
      },
      "geometry": {
        "type": "Point",
        "coordinates": [
          -2.9368,
          43.143
        ]
      }
    },
    {
      "type": "Feature",
      "properties": {
        "description": "<b>Fecha de Creación:</b> 28/09/2026 - 08:57:59<br><b>Tipo de Incidente </b> Obras<br><b>Dirección:</b> Creciente<br><b>Impacto: </b> Sin retención<br><b>Carretera:</b> AP-1<br><b>Punto Kilométrico:</b> 135.0 km"
      },
      "geometry": {
        "type": "Point",
        "coordinates": [
          -2.4285,
          43.1226
        ]
      }
    },
    {
      "type": "Feature",
      "properties": {
        "description": "<b>Fecha de Creación:</b> 28/09/2026 - 10:45:29<br><b>Tipo de Incidente </b> Obras<br><b>Dirección:</b> unknown<br><b>Impacto: </b> Sin retención<br><b>Carretera:</b> AP-8<br><b>Punto Kilométrico:</b> 74.0 km"
      },
      "geometry": {
        "type": "Point",
        "coordinates": [
          -2.4796,
          43.1812
        ]
      }
    },
    {
      "type": "Feature",
      "properties": {
        "description": "<b>Fecha de Creación:</b> 29/09/2026 - 00:38:01<br><b>Tipo de Incidente </b> Obras<br><b>Dirección:</b> unknown<br><b>Impacto: </b> Sin retención<br><b>Carretera:</b> AP-8<br><b>Punto Kilométrico:</b> 71.0 km"
      },
      "geometry": {
        "type": "Point",
        "coordinates": [
          -2.448,
          43.1902
        ]
      }
    },
    {
      "type": "Feature",
      "properties": {
        "description": "<b>Fecha de Creación:</b> 29/09/2026 - 07:10:36<br><b>Tipo de Incidente </b> Obras<br><b>Dirección:</b> unknown<br><b>Impacto: </b> Sin retención<br><b>Carretera:</b> AP-68<br><b>Punto Kilométrico:</b> 20.0 km"
      },
      "geometry": {
        "type": "Point",
        "coordinates": [
          -2.9154,
          43.0867
        ]
      }
    },
    {
      "type": "Feature",
      "properties": {
        "description": "<b>Fecha de Creación:</b> 30/09/2026 - 08:20:19<br><b>Tipo de Incidente </b> Obras<br><b>Dirección:</b> Creciente<br><b>Impacto: </b> Congestionada<br><b>Carretera:</b> A-1<br><b>Punto Kilométrico:</b> 354.0 km"
      },
      "geometry": {
        "type": "Point",
        "coordinates": [
          -2.6601,
          42.8808
        ]
      }
    },
    {
      "type": "Feature",
      "properties": {
        "description": "<b>Fecha de Creación:</b> 30/09/2026 - 09:10:39<br><b>Tipo de Incidente </b> Obras<br><b>Dirección:</b> unknown<br><b>Impacto: </b> Sin retención<br><b>Carretera:</b> N-634<br><b>Punto Kilométrico:</b> 70.0 km"
      },
      "geometry": {
        "type": "Point",
        "coordinates": [
          -2.5328,
          43.1823
        ]
      }
    },
    {
      "type": "Feature",
      "properties": {
        "description": "<b>Fecha de Creación:</b> 30/09/2026 - 09:23:33<br><b>Tipo de Incidente </b> Obras<br><b>Dirección:</b> Creciente<br><b>Impacto: </b> Sin retención<br><b>Carretera:</b> BI-637<br><b>Punto Kilométrico:</b> 17.0 km"
      },
      "geometry": {
        "type": "Point",
        "coordinates": [
          -3.0009,
          43.37
        ]
      }
    },
    {
      "type": "Feature",
      "properties": {
        "description": "<b>Fecha de Creación:</b> 30/09/2026 - 13:01:05<br><b>Tipo de Incidente:</b> brokenDownVehicle<br><b>Dirección:</b> unknown<br><b>Impacto: </b> Sin retención<br><b>Carretera:</b> A-1<br><b>Punto Kilométrico:</b> 338.0 km"
      },
      "geometry": {
        "type": "Point",
        "coordinates": [
          -2.8173,
          42.8
        ]
      }
    },
    {
      "type": "Feature",
      "properties": {
        "description": "<b>Fecha de Creación:</b> 30/09/2026 - 13:13:52<br><b>Dirección:</b> unknown<br><b>Impacto: </b> Sin retención<br><b>Carretera:</b> BI-636<br><b>Punto Kilométrico:</b> 31.0 km"
      },
      "geometry": {
        "type": "Point",
        "coordinates": [
          -3.1922,
          43.1905
        ]
      }
    },
    {
      "type": "Feature",
      "properties": {
        "description": "<b>Fecha de Creación:</b> 30/09/2026 - 13:25:08<br><b>Tipo de Obstrucción:</b> Objeto en Calzada<br><b>Dirección:</b> unknown<br><b>Impacto: </b> Sin retención<br><b>Carretera:</b> N-240<br><b>Punto Kilométrico:</b> 8.0 km"
      },
      "geometry": {
        "type": "Point",
        "coordinates": [
          -2.6483,
          42.9079
        ]
      }
    },
    {
      "type": "Feature",
      "properties": {
        "description": "<b>Fecha de Creación:</b> 30/09/2026 - 14:35:11<br><b>Tipo de Incidente </b> Obras<br><b>Dirección:</b> Decreciente<br><b>Impacto: </b> Sin retención<br><b>Carretera:</b> A-636<br><b>Punto Kilométrico:</b> 6.0 km"
      },
      "geometry": {
        "type": "Point",
        "coordinates": [
          -2.2591,
          43.0516
        ]
      }
    },
    {
      "type": "Feature",
      "properties": {
        "description": "<b>Fecha de Creación:</b> 30/09/2026 - 14:58:15<br><b>Tipo de Incidente:</b> brokenDownVehicle<br><b>Dirección:</b> unknown<br><b>Impacto: </b> Sin retención<br><b>Carretera:</b> BI-636<br><b>Punto Kilométrico:</b> 31.0 km"
      },
      "geometry": {
        "type": "Point",
        "coordinates": [
          -3.1922,
          43.1905
        ]
      }
    },
    {
      "type": "Feature",
      "properties": {
        "description": "<b>Fecha de Creación:</b> 30/09/2026 - 15:07:34<br><b>Tipo de Incidente:</b> brokenDownVehicle<br><b>Dirección:</b> unknown<br><b>Impacto: </b> Congestionada<br><b>Carretera:</b> AP-1<br><b>Punto Kilométrico:</b> 137.0 km"
      },
      "geometry": {
        "type": "Point",
        "coordinates": [
          -2.4286,
          43.1229
        ]
      }
    },
    {
      "type": "Feature",
      "properties": {
        "description": "<b>Fecha de Creación:</b> 30/09/2026 - 15:11:01<br><b>Dirección:</b> unknown<br><b>Impacto: </b> Congestionada<br><b>Carretera:</b> GI-2630<br><b>Punto Kilométrico:</b> 2.0 km"
      },
      "geometry": {
        "type": "Point",
        "coordinates": [
          -2.335,
          43.0635
        ]
      }
    },
    {
      "type": "Feature",
      "properties": {
        "description": "<b>Fecha de Creación:</b> 30/09/2026 - 15:15:44<br><b>Tipo de Incidente:</b> brokenDownVehicle<br><b>Dirección:</b> unknown<br><b>Impacto: </b> Sin retención<br><b>Carretera:</b> N-622<br><b>Punto Kilométrico:</b> 14.0 km"
      },
      "geometry": {
        "type": "Point",
        "coordinates": [
          -2.7626,
          42.9414
        ]
      }
    },
    {
      "type": "Feature",
      "properties": {
        "description": "<b>Fecha de Creación:</b> 30/09/2026 - 15:21:59<br><b>Dirección:</b> unknown<br><b>Impacto: </b> Congestionada<br><b>Carretera:</b> A-8<br><b>Punto Kilométrico:</b> 118.0 km"
      },
      "geometry": {
        "type": "Point",
        "coordinates": [
          -2.9536,
          43.2578
        ]
      }
    },
    {
      "type": "Feature",
      "properties": {
        "description": "<b>Fecha de Creación:</b> 30/09/2026 - 15:24:47<br><b>Dirección:</b> unknown<br><b>Impacto: </b> Sin retención<br><b>Carretera:</b> GI-40<br><b>Punto Kilométrico:</b> 2.0 km"
      },
      "geometry": {
        "type": "Point",
        "coordinates": [
          -1.9597,
          43.3006
        ]
      }
    },
    {
      "type": "Feature",
      "properties": {
        "description": "<b>Fecha de Creación:</b> 07/11/2024 - 00:00:00<br><b>Dirección:</b> Creciente<br><b>Carretera:</b> GI-631<br><b>Punto Kilométrico:</b> 22.9 km"
      },
      "geometry": {
        "type": "Point",
        "coordinates": [
          -2.3452,
          43.1476
        ]
      }
    },
    {
      "type": "Feature",
      "properties": {
        "description": "<b>Fecha de Creación:</b> 10/11/2025 - 00:00:00<br><b>Dirección:</b> Creciente<br><b>Carretera:</b> GI-3281<br><b>Punto Kilométrico:</b> 0.7 km"
      },
      "geometry": {
        "type": "Point",
        "coordinates": [
          -2.0744,
          43.1992
        ]
      }
    },
    {
      "type": "Feature",
      "properties": {
        "description": "<b>Fecha de Creación:</b> 10/11/2025 - 00:00:00<br><b>Dirección:</b> Creciente<br><b>Carretera:</b> GI-3282<br><b>Punto Kilométrico:</b> 0.0 km"
      },
      "geometry": {
        "type": "Point",
        "coordinates": [
          -2.0573,
          43.1957
        ]
      }
    },
    {
      "type": "Feature",
      "properties": {
        "description": "<b>Fecha de Creación:</b> 02/02/2026 - 00:00:00<br><b>Dirección:</b> Decreciente<br><b>Carretera:</b> N-634<br><b>Punto Kilométrico:</b> 60.3 km"
      },
      "geometry": {
        "type": "Point",
        "coordinates": [
          -2.4345,
          43.199
        ]
      }
    },
    {
      "type": "Feature",
      "properties": {
        "description": "<b>Fecha de Creación:</b> 14/04/2026 - 00:00:00<br><b>Dirección:</b> Creciente<br><b>Carretera:</b> BI-3702<br><b>Punto Kilométrico:</b> 12.6 km"
      },
      "geometry": {
        "type": "Point",
        "coordinates": [
          -2.8634,
          43.2071
        ]
      }
    },
    {
      "type": "Feature",
      "properties": {
        "description": "<b>Fecha de Creación:</b> 25/05/2026 - 00:00:00<br><b>Dirección:</b> Ambos Sentidos<br><b>Carretera:</b> GI-3272<br><b>Punto Kilométrico:</b> 0.3 km"
      },
      "geometry": {
        "type": "Point",
        "coordinates": [
          -2.2567,
          43.2191
        ]
      }
    },
    {
      "type": "Feature",
      "properties": {
        "description": "<b>Fecha de Creación:</b> 26/05/2026 - 00:00:00<br><b>Dirección:</b> Creciente<br><b>Carretera:</b> GI-3272<br><b>Punto Kilométrico:</b> 0.0 km"
      },
      "geometry": {
        "type": "Point",
        "coordinates": [
          -2.2567,
          43.2191
        ]
      }
    },
    {
      "type": "Feature",
      "properties": {
        "description": "<b>Fecha de Creación:</b> 03/06/2026 - 00:00:00<br><b>Dirección:</b> Creciente<br><b>Carretera:</b> GI-636<br><b>Punto Kilométrico:</b> 15.3 km"
      },
      "geometry": {
        "type": "Point",
        "coordinates": [
          -1.7767,
          43.341
        ]
      }
    },
    {
      "type": "Feature",
      "properties": {
        "description": "<b>Fecha de Creación:</b> 30/06/2026 - 00:00:00<br><b>Dirección:</b> Creciente<br><b>Carretera:</b> GI-2132<br><b>Punto Kilométrico:</b> 1.5 km"
      },
      "geometry": {
        "type": "Point",
        "coordinates": [
          -1.9833,
          43.2754
        ]
      }
    },
    {
      "type": "Feature",
      "properties": {
        "description": "<b>Fecha de Creación:</b> 01/07/2026 - 00:00:00<br><b>Dirección:</b> Creciente<br><b>Carretera:</b> GI-3321<br><b>Punto Kilométrico:</b> 2.0 km"
      },
      "geometry": {
        "type": "Point",
        "coordinates": [
          -2.3804,
          43.203
        ]
      }
    },
    {
      "type": "Feature",
      "properties": {
        "description": "<b>Fecha de Creación:</b> 06/07/2026 - 00:00:00<br><b>Dirección:</b> Creciente<br><b>Carretera:</b> BI-2701<br><b>Punto Kilométrico:</b> 23.7 km"
      },
      "geometry": {
        "type": "Point",
        "coordinates": [
          -3.1351,
          43.2867
        ]
      }
    },
    {
      "type": "Feature",
      "properties": {
        "description": "<b>Fecha de Creación:</b> 06/08/2026 - 00:00:00<br><b>Dirección:</b> Creciente<br><b>Carretera:</b> GI-3321<br><b>Punto Kilométrico:</b> 3.0 km"
      },
      "geometry": {
        "type": "Point",
        "coordinates": [
          -2.3899,
          43.2066
        ]
      }
    },
    {
      "type": "Feature",
      "properties": {
        "description": "<b>Fecha de Creación:</b> 04/08/2026 - 00:00:00<br><b>Dirección:</b> Creciente<br><b>Carretera:</b> BI-3231<br><b>Punto Kilométrico:</b> 32.0 km"
      },
      "geometry": {
        "type": "Point",
        "coordinates": [
          -2.6283,
          43.2412
        ]
      }
    },
    {
      "type": "Feature",
      "properties": {
        "description": "<b>Fecha de Creación:</b> 06/09/2026 - 00:00:00<br><b>Dirección:</b> Creciente<br><b>Carretera:</b> GI-2634<br><b>Punto Kilométrico:</b> 3.4 km"
      },
      "geometry": {
        "type": "Point",
        "coordinates": [
          -2.1307,
          43.1272
        ]
      }
    },
    {
      "type": "Feature",
      "properties": {
        "description": "<b>Fecha de Creación:</b> 21/09/2026 - 00:00:00<br><b>Dirección:</b> Creciente<br><b>Carretera:</b> BI-624<br><b>Punto Kilométrico:</b> 65.5 km"
      },
      "geometry": {
        "type": "Point",
        "coordinates": [
          -3.2066,
          43.1796
        ]
      }
    },
    {
      "type": "Feature",
      "properties": {
        "description": "<b>Fecha de Creación:</b> 21/09/2026 - 00:00:00<br><b>Dirección:</b> Creciente<br><b>Carretera:</b> GI-3751<br><b>Punto Kilométrico:</b> 0.1 km"
      },
      "geometry": {
        "type": "Point",
        "coordinates": [
          -2.0509,
          43.185
        ]
      }
    },
    {
      "type": "Feature",
      "properties": {
        "description": "<b>Fecha de Creación:</b> 17/09/2026 - 00:00:00<br><b>Dirección:</b> Creciente<br><b>Carretera:</b> N-634<br><b>Punto Kilométrico:</b> 54.9 km"
      },
      "geometry": {
        "type": "Point",
        "coordinates": [
          -2.4002,
          43.2291
        ]
      }
    },
    {
      "type": "Feature",
      "properties": {
        "description": "<b>Fecha de Creación:</b> 25/09/2026 - 00:00:00<br><b>Dirección:</b> Creciente<br><b>Carretera:</b> GI-2636<br><b>Punto Kilométrico:</b> 0.3 km"
      },
      "geometry": {
        "type": "Point",
        "coordinates": [
          -2.4419,
          43.2389
        ]
      }
    },
    {
      "type": "Feature",
      "properties": {
        "description": "<b>Fecha de Creación:</b> 30/09/2026 - 00:00:00<br><b>Dirección:</b> Creciente<br><b>Carretera:</b> GI-3950<br><b>Punto Kilométrico:</b> 0.0 km"
      },
      "geometry": {
        "type": "Point",
        "coordinates": [
          -2.4917,
          43.2236
        ]
      }
    },
    {
      "type": "Feature",
      "properties": {
        "description": "<b>Fecha de Creación:</b> 30/09/2026 - 00:00:00<br><b>Dirección:</b> Creciente<br><b>Carretera:</b> GI-2620<br><b>Punto Kilométrico:</b> 19.7 km"
      },
      "geometry": {
        "type": "Point",
        "coordinates": [
          -2.4953,
          43.0575
        ]
      }
    },
    {
      "type": "Feature",
      "properties": {
        "description": "<b>Fecha de Creación:</b> 28/09/2026 - 00:00:00<br><b>Dirección:</b> Creciente<br><b>Carretera:</b> N-634<br><b>Punto Kilométrico:</b> 45.3 km"
      },
      "geometry": {
        "type": "Point",
        "coordinates": [
          -2.4345,
          43.199
        ]
      }
    },
    {
      "type": "Feature",
      "properties": {
        "description": "<b>Fecha de Creación:</b> 29/09/2026 - 00:00:00<br><b>Dirección:</b> Creciente<br><b>Carretera:</b> GI-3713<br><b>Punto Kilométrico:</b> 1.7 km"
      },
      "geometry": {
        "type": "Point",
        "coordinates": [
          -2.0942,
          43.1201
        ]
      }
    },
    {
      "type": "Feature",
      "properties": {
        "description": "<b>Fecha de Creación:</b> 26/09/2026 - 00:00:00<br><b>Dirección:</b> Creciente<br><b>Carretera:</b> GI-631<br><b>Punto Kilométrico:</b> 12.0 km"
      },
      "geometry": {
        "type": "Point",
        "coordinates": [
          -2.2646,
          43.1786
        ]
      }
    },
    {
      "type": "Feature",
      "properties": {
        "description": "<b>Fecha de Creación:</b> 26/09/2026 - 00:00:00<br><b>Dirección:</b> Creciente<br><b>Carretera:</b> GI-631<br><b>Punto Kilométrico:</b> 4.0 km"
      },
      "geometry": {
        "type": "Point",
        "coordinates": [
          -2.2555,
          43.2344
        ]
      }
    },
    {
      "type": "Feature",
      "properties": {
        "description": "<b>Fecha de Creación:</b> 28/09/2026 - 00:00:00<br><b>Dirección:</b> Creciente<br><b>Carretera:</b> N-634<br><b>Punto Kilométrico:</b> 58.0 km"
      },
      "geometry": {
        "type": "Point",
        "coordinates": [
          -2.4773,
          43.187
        ]
      }
    },
    {
      "type": "Feature",
      "properties": {
        "description": "<b>Fecha de Creación:</b> 26/09/2026 - 00:00:00<br><b>Dirección:</b> Creciente<br><b>Carretera:</b> GI-631<br><b>Punto Kilométrico:</b> 19.0 km"
      },
      "geometry": {
        "type": "Point",
        "coordinates": [
          -2.3373,
          43.1578
        ]
      }
    },
    {
      "type": "Feature",
      "properties": {
        "description": "<b>Fecha de Creación:</b> 28/09/2026 - 00:00:00<br><b>Dirección:</b> Creciente<br><b>Carretera:</b> GI-2631<br><b>Punto Kilométrico:</b> 0.0 km"
      },
      "geometry": {
        "type": "Point",
        "coordinates": [
          -2.1413,
          43.2711
        ]
      }
    },
    {
      "type": "Feature",
      "properties": {
        "description": "<b>Fecha de Creación:</b> 28/09/2026 - 00:00:00<br><b>Dirección:</b> Creciente<br><b>Carretera:</b> GI-2632<br><b>Punto Kilométrico:</b> 0.1 km"
      },
      "geometry": {
        "type": "Point",
        "coordinates": [
          -2.4935,
          43.138
        ]
      }
    },
    {
      "type": "Feature",
      "properties": {
        "description": "<b>Fecha de Creación:</b> 28/09/2026 - 00:00:00<br><b>Dirección:</b> Creciente<br><b>Carretera:</b> GI-2633<br><b>Punto Kilométrico:</b> 0.0 km"
      },
      "geometry": {
        "type": "Point",
        "coordinates": [
          -2.2556,
          43.2557
        ]
      }
    },
    {
      "type": "Feature",
      "properties": {
        "description": "<b>Fecha de Creación:</b> 28/09/2026 - 00:00:00<br><b>Dirección:</b> Creciente<br><b>Carretera:</b> GI-2634<br><b>Punto Kilométrico:</b> 0.0 km"
      },
      "geometry": {
        "type": "Point",
        "coordinates": [
          -2.3954,
          43.2232
        ]
      }
    },
    {
      "type": "Feature",
      "properties": {
        "description": "<b>Fecha de Creación:</b> 28/09/2026 - 00:00:00<br><b>Dirección:</b> Creciente<br><b>Carretera:</b> GI-2635<br><b>Punto Kilométrico:</b> 0.0 km"
      },
      "geometry": {
        "type": "Point",
        "coordinates": [
          -2.2368,
          43.0546
        ]
      }
    },
    {
      "type": "Feature",
      "properties": {
        "description": "<b>Fecha de Creación:</b> 28/09/2026 - 00:00:00<br><b>Dirección:</b> Creciente<br><b>Carretera:</b> GI-2636<br><b>Punto Kilométrico:</b> 0.3 km"
      },
      "geometry": {
        "type": "Point",
        "coordinates": [
          -2.4419,
          43.2389
        ]
      }
    },
    {
      "type": "Feature",
      "properties": {
        "description": "<b>Fecha de Creación:</b> 28/09/2026 - 00:00:00<br><b>Dirección:</b> Creciente<br><b>Carretera:</b> GI-2637<br><b>Punto Kilométrico:</b> 0.2 km"
      },
      "geometry": {
        "type": "Point",
        "coordinates": [
          -2.2379,
          42.9319
        ]
      }
    },
    {
      "type": "Feature",
      "properties": {
        "description": "<b>Fecha de Creación:</b> 28/09/2026 - 00:00:00<br><b>Dirección:</b> Creciente<br><b>Carretera:</b> GI-2638<br><b>Punto Kilométrico:</b> 0.6 km"
      },
      "geometry": {
        "type": "Point",
        "coordinates": [
          -1.8515,
          43.33
        ]
      }
    },
    {
      "type": "Feature",
      "properties": {
        "description": "<b>Fecha de Creación:</b> 28/09/2026 - 00:00:00<br><b>Dirección:</b> Creciente<br><b>Carretera:</b> GI-2639<br><b>Punto Kilométrico:</b> 0.0 km"
      },
      "geometry": {
        "type": "Point",
        "coordinates": [
          -2.4843,
          43.179
        ]
      }
    },
    {
      "type": "Feature",
      "properties": {
        "description": "<b>Fecha de Creación:</b> 30/09/2026 - 00:00:00<br><b>Dirección:</b> Creciente<br><b>Carretera:</b> GI-631<br><b>Punto Kilométrico:</b> 27.0 km"
      },
      "geometry": {
        "type": "Point",
        "coordinates": [
          -2.3305,
          43.1142
        ]
      }
    },
    {
      "type": "Feature",
      "properties": {
        "description": "<b>Fecha de Creación:</b> 01/10/2026 - 00:00:00<br><b>Dirección:</b> Ambos Sentidos<br><b>Carretera:</b> GI-3410<br><b>Punto Kilométrico:</b> 9.9 km"
      },
      "geometry": {
        "type": "Point",
        "coordinates": [
          -1.9151,
          43.2203
        ]
      }
    },
    {
      "type": "Feature",
      "properties": {
        "description": "<b>Fecha de Creación:</b> 01/10/2026 - 00:00:00<br><b>Dirección:</b> Creciente<br><b>Carretera:</b> GI-2630<br><b>Punto Kilométrico:</b> 0.2 km"
      },
      "geometry": {
        "type": "Point",
        "coordinates": [
          -2.4042,
          43.0321
        ]
      }
    },
    {
      "type": "Feature",
      "properties": {
        "description": "<b>Fecha de Creación:</b> 01/10/2026 - 00:00:00<br><b>Dirección:</b> Creciente<br><b>Carretera:</b> GI-2634<br><b>Punto Kilométrico:</b> 34.0 km"
      },
      "geometry": {
        "type": "Point",
        "coordinates": [
          -2.3544,
          43.2023
        ]
      }
    },
    {
      "type": "Feature",
      "properties": {
        "description": "<b>Fecha de Creación:</b> 03/10/2026 - 00:00:00<br><b>Dirección:</b> Creciente<br><b>Carretera:</b> GI-3210<br><b>Punto Kilométrico:</b> 15.0 km"
      },
      "geometry": {
        "type": "Point",
        "coordinates": [
          -2.3285,
          43.1882
        ]
      }
    },
    {
      "type": "Feature",
      "properties": {
        "description": "<b>Fecha de Creación:</b> 03/10/2026 - 00:00:00<br><b>Dirección:</b> Creciente<br><b>Carretera:</b> GI-3321<br><b>Punto Kilométrico:</b> 0.0 km"
      },
      "geometry": {
        "type": "Point",
        "coordinates": [
          -2.4066,
          43.2105
        ]
      }
    },
    {
      "type": "Feature",
      "properties": {
        "description": "<b>Fecha de Creación:</b> 30/09/2026 - 00:00:00<br><b>Dirección:</b> Creciente<br><b>Carretera:</b> GI-3420<br><b>Punto Kilométrico:</b> 0.0 km"
      },
      "geometry": {
        "type": "Point",
        "coordinates": [
          -1.8021,
          43.2732
        ]
      }
    },
    {
      "type": "Feature",
      "properties": {
        "description": "<b>Fecha de Creación:</b> 01/10/2026 - 00:00:00<br><b>Dirección:</b> Creciente<br><b>Carretera:</b> GI-3631<br><b>Punto Kilométrico:</b> 0.0 km"
      },
      "geometry": {
        "type": "Point",
        "coordinates": [
          -1.8107,
          43.2449
        ]
      }
    },
    {
      "type": "Feature",
      "properties": {
        "description": "<b>Fecha de Creación:</b> 01/10/2026 - 00:00:00<br><b>Dirección:</b> Creciente<br><b>Carretera:</b> GI-3041<br><b>Punto Kilométrico:</b> 0.2 km"
      },
      "geometry": {
        "type": "Point",
        "coordinates": [
          -2.1207,
          43.1251
        ]
      }
    },
    {
      "type": "Feature",
      "properties": {
        "description": "<b>Fecha de Creación:</b> 02/10/2026 - 00:00:00<br><b>Dirección:</b> Creciente<br><b>Carretera:</b> GI-3712<br><b>Punto Kilométrico:</b> 0.5 km"
      },
      "geometry": {
        "type": "Point",
        "coordinates": [
          -2.115,
          43.1012
        ]
      }
    },
    {
      "type": "Feature",
      "properties": {
        "description": "<b>Fecha de Creación:</b> 01/10/2026 - 00:00:00<br><b>Dirección:</b> Creciente<br><b>Carretera:</b> N-634<br><b>Punto Kilométrico:</b> 47.0 km"
      },
      "geometry": {
        "type": "Point",
        "coordinates": [
          -2.3779,
          43.2628
        ]
      }
    },
    {
      "type": "Feature",
      "properties": {
        "description": "<b>Fecha de Creación:</b> 02/10/2026 - 00:00:00<br><b>Dirección:</b> Creciente<br><b>Carretera:</b> N-634<br><b>Punto Kilométrico:</b> 31.0 km"
      },
      "geometry": {
        "type": "Point",
        "coordinates": [
          -2.2973,
          43.2799
        ]
      }
    },
    {
      "type": "Feature",
      "properties": {
        "description": "<b>Fecha de Creación:</b> 03/10/2026 - 20:30:00<br><b>Dirección:</b> Creciente<br><b>Impacto: </b> Imposible circular<br><b>Carretera:</b> BI-626<br><b>Punto Kilométrico:</b> 1.5 km"
      },
      "geometry": {
        "type": "Point",
        "coordinates": [
          -2.9312,
          43.2719
        ]
      }
    },
    {
      "type": "Feature",
      "properties": {
        "description": "<b>Fecha de Creación:</b> 04/10/2026 - 11:00:00<br><b>Dirección:</b> Creciente<br><b>Impacto: </b> Imposible circular<br><b>Carretera:</b> N-240<br><b>Punto Kilométrico:</b> 54.0 km"
      },
      "geometry": {
        "type": "Point",
        "coordinates": [
          -2.82,
          43.2234
        ]
      }
    },
    {
      "type": "Feature",
      "properties": {
        "description": "<b>Fecha de Creación:</b> 04/10/2026 - 11:00:00<br><b>Dirección:</b> unknown<br><b>Impacto: </b> Imposible circular<br><b>Carretera:</b> BI-637<br><b>Punto Kilométrico:</b> 12.0 km"
      },
      "geometry": {
        "type": "Point",
        "coordinates": [
          -2.9854,
          43.3248
        ]
      }
    },
    {
      "type": "Feature",
      "properties": {
        "description": "<b>Fecha de Creación:</b> 25/10/2026 - 10:15:00<br><b>Dirección:</b> unknown<br><b>Impacto: </b> Imposible circular<br><b>Carretera:</b> N-240<br><b>Punto Kilométrico:</b> 39.0 km"
      },
      "geometry": {
        "type": "Point",
        "coordinates": [
          -2.7662,
          43.1197
        ]
      }
    },
    {
      "type": "Feature",
      "properties": {
        "description": "<b>Fecha de Creación:</b> 03/10/2026 - 11:00:00<br><b>Dirección:</b> unknown<br><b>Impacto: </b> Imposible circular<br><b>Carretera:</b> GI-2131<br><b>Punto Kilométrico:</b> 2.6 km"
      },
      "geometry": {
        "type": "Point",
        "coordinates": [
          -2.1561,
          43.0806
        ]
      }
    },
    {
      "type": "Feature",
      "properties": {
        "description": "<b>Fecha de Creación:</b> 03/10/2026 - 13:00:00<br><b>Dirección:</b> unknown<br><b>Impacto: </b> Imposible circular<br><b>Carretera:</b> N-634<br><b>Punto Kilométrico:</b> 54.0 km"
      },
      "geometry": {
        "type": "Point",
        "coordinates": [
          -2.4013,
          43.2355
        ]
      }
    },
    {
      "type": "Feature",
      "properties": {
        "description": "<b>Fecha de Creación:</b> 04/10/2026 - 10:00:00<br><b>Dirección:</b> unknown<br><b>Impacto: </b> Imposible circular<br><b>Carretera:</b> GI-636<br><b>Punto Kilométrico:</b> 9.0 km"
      },
      "geometry": {
        "type": "Point",
        "coordinates": [
          -1.843,
          43.3316
        ]
      }
    },
    {
      "type": "Feature",
      "properties": {
        "description": "<b>Fecha de Creación:</b> 10/10/2026 - 09:30:00<br><b>Dirección:</b> unknown<br><b>Impacto: </b> Imposible circular<br><b>Carretera:</b> A-2622<br><b>Punto Kilométrico:</b> 29.0 km"
      },
      "geometry": {
        "type": "Point",
        "coordinates": [
          -2.9867,
          42.8017
        ]
      }
    },
    {
      "type": "Feature",
      "properties": {
        "description": "<b>Fecha de Creación:</b> 11/10/2026 - 09:30:00<br><b>Dirección:</b> unknown<br><b>Impacto: </b> Imposible circular<br><b>Carretera:</b> A-2622<br><b>Punto Kilométrico:</b> 29.0 km"
      },
      "geometry": {
        "type": "Point",
        "coordinates": [
          -2.9867,
          42.8017
        ]
      }
    }
  ]
}